{"type":"FeatureCollection","features":[{"type":"Feature","properties":{"name":"Altrincham and Sale West","code":"E14001065"},"geometry":{"type":"Polygon","coordinates":[[[-2.316,53.435],[-2.286,53.376],[-2.329,53.361],[-2.37,53.364],[-2.448,53.395],[-2.466,53.401],[-2.405,53.415],[-2.343,53.438],[-2.316,53.435]]]}},{"type":"Feature","properties":{"name":"Amber Valley","code":"E14001066"},"geometry":{"type":"Polygon","coordinates":[[[-1.332,53.081],[-1.319,53.01],[-1.328,52.982],[-1.385,52.982],[-1.451,52.982],[-1.47,52.999],[-1.443,53.037],[-1.477,53.068],[-1.472,53.099],[-1.433,53.106],[-1.377,53.109],[-1.332,53.081]]]}},{"type":"Feature","properties":{"name":"Ashfield","code":"E14001068"},"geometry":{"type":"Polygon","coordinates":[[[-1.168,53.116],[-1.193,53.093],[-1.258,53.041],[-1.305,53.045],[-1.336,53.053],[-1.301,53.102],[-1.322,53.144],[-1.291,53.171],[-1.23,53.178],[-1.229,53.163],[-1.241,53.153],[-1.168,53.116]]]}},{"type":"Feature","properties":{"name":"Ashton-under-Lyne","code":"E14001070"},"geometry":{"type":"Polygon","coordinates":[[[-2.098,53.464],[-2.148,53.463],[-2.165,53.477],[-2.121,53.501],[-2.062,53.513],[-2.079,53.477],[-2.098,53.464]]]}},{"type":"Feature","properties":{"name":"Barnsley North","code":"E14001074"},"geometry":{"type":"Polygon","coordinates":[[[-1.349,53.583],[-1.331,53.54],[-1.377,53.559],[-1.411,53.556],[-1.464,53.539],[-1.511,53.561],[-1.541,53.563],[-1.559,53.582],[-1.531,53.593],[-1.497,53.597],[-1.448,53.613],[-1.377,53.606],[-1.349,53.583]]]}},{"type":"Feature","properties":{"name":"Barnsley South","code":"E14001075"},"geometry":{"type":"Polygon","coordinates":[[[-1.332,53.563],[-1.276,53.53],[-1.38,53.514],[-1.441,53.491],[-1.482,53.527],[-1.497,53.553],[-1.45,53.554],[-1.396,53.557],[-1.351,53.545],[-1.337,53.55],[-1.332,53.563]]]}},{"type":"Feature","properties":{"name":"Barrow and Furness","code":"E14001076"},"geometry":{"type":"MultiPolygon","coordinates":[[[[-3.174,54.067]]],[[[-3.246,54.107],[-3.247,54.095],[-3.23,54.088],[-3.226,54.078],[-3.196,54.049],[-3.196,54.044],[-3.277,54.142],[-3.265,54.139],[-3.255,54.132],[-3.246,54.107]]],[[[-3.022,54.214]]],[[[-3.136,54.422],[-3.121,54.39],[-3.132,54.329],[-3.131,54.261],[-3.098,54.276],[-3.062,54.249],[-3.053,54.221],[-3.034,54.211],[-3.055,54.194],[-3.062,54.181],[-3.059,54.173],[-3.105,54.12],[-3.172,54.082],[-3.173,54.074],[-3.191,54.103],[-3.212,54.099],[-3.22,54.095],[-3.22,54.093],[-3.222,54.094],[-3.239,54.104],[-3.241,54.158],[-3.227,54.172],[-3.219,54.187],[-3.209,54.21],[-3.199,54.22],[-3.212,54.252],[-3.228,54.26],[-3.228,54.278],[-3.233,54.262],[-3.224,54.247],[-3.234,54.232],[-3.233,54.229],[-3.243,54.225],[-3.251,54.228],[-3.25,54.21],[-3.278,54.194],[-3.342,54.208],[-3.416,54.304],[-3.404,54.338],[-3.392,54.371],[-3.324,54.405],[-3.225,54.448],[-3.175,54.455],[-3.157,54.43],[-3.136,54.422]]]]}},{"type":"Feature","properties":{"name":"Bassetlaw","code":"E14001079"},"geometry":{"type":"Polygon","coordinates":[[[-0.797,53.455],[-0.789,53.415],[-0.787,53.384],[-0.87,53.394],[-0.945,53.407],[-0.924,53.356],[-0.962,53.343],[-0.921,53.333],[-0.909,53.306],[-0.972,53.283],[-0.986,53.264],[-1.052,53.252],[-1.124,53.225],[-1.202,53.236],[-1.166,53.278],[-1.2,53.311],[-1.139,53.341],[-1.139,53.356],[-1.131,53.389],[-1.108,53.406],[-1.073,53.428],[-1.014,53.426],[-0.986,53.472],[-0.916,53.46],[-0.797,53.455]]]}},{"type":"Feature","properties":{"name":"Beverley and Holderness","code":"E14001087"},"geometry":{"type":"Polygon","coordinates":[[[-0.529,53.942],[-0.489,53.939],[-0.438,53.928],[-0.387,53.91],[-0.329,53.901],[-0.274,53.899],[-0.226,53.891],[-0.15,53.853],[-0.095,53.841],[0.117,53.662],[0.146,53.604],[0.108,53.575],[0.145,53.609],[0.019,53.645],[-0.057,53.629],[-0.133,53.651],[-0.184,53.687],[-0.243,53.73],[-0.241,53.755],[-0.278,53.782],[-0.37,53.809],[-0.437,53.815],[-0.478,53.811],[-0.539,53.807],[-0.633,53.802],[-0.604,53.839],[-0.636,53.913],[-0.529,53.942]]]}},{"type":"Feature","properties":{"name":"Birkenhead","code":"E14001091"},"geometry":{"type":"Polygon","coordinates":[[[-3.013,53.401],[-3.0,53.365],[-3.021,53.338],[-3.088,53.405],[-3.022,53.401],[-3.013,53.401]]]}},{"type":"Feature","properties":{"name":"Blackburn","code":"E14001102"},"geometry":{"type":"Polygon","coordinates":[[[-2.466,53.781],[-2.458,53.717],[-2.493,53.729],[-2.539,53.715],[-2.562,53.747],[-2.499,53.769],[-2.466,53.781]]]}},{"type":"Feature","properties":{"name":"Blackley and Middleton South","code":"E14001103"},"geometry":{"type":"Polygon","coordinates":[[[-2.156,53.516],[-2.217,53.495],[-2.245,53.512],[-2.252,53.545],[-2.192,53.546],[-2.172,53.555],[-2.165,53.52],[-2.156,53.516]]]}},{"type":"Feature","properties":{"name":"Blackpool North and Fleetwood","code":"E14001104"},"geometry":{"type":"Polygon","coordinates":[[[-2.977,53.862],[-2.997,53.862],[-3.02,53.841],[-3.044,53.839],[-3.051,53.857],[-3.047,53.892],[-3.007,53.928],[-3.008,53.921],[-3.006,53.903],[-3.003,53.893],[-2.979,53.871],[-2.977,53.862]]]}},{"type":"Feature","properties":{"name":"Blackpool South","code":"E14001105"},"geometry":{"type":"Polygon","coordinates":[[[-3.02,53.841],[-3.012,53.826],[-3.006,53.788],[-3.059,53.784],[-3.057,53.799],[-3.057,53.819],[-3.049,53.842],[-3.037,53.833],[-3.02,53.841]]]}},{"type":"Feature","properties":{"name":"Blyth and Ashington","code":"E14001107"},"geometry":{"type":"Polygon","coordinates":[[[-1.494,55.102],[-1.566,55.104],[-1.603,55.111],[-1.639,55.117],[-1.635,55.155],[-1.634,55.179],[-1.591,55.206],[-1.552,55.205],[-1.505,55.193],[-1.514,55.179],[-1.521,55.167],[-1.54,55.162],[-1.516,55.143],[-1.491,55.121],[-1.52,55.139],[-1.554,55.134],[-1.549,55.134],[-1.535,55.135],[-1.505,55.13],[-1.497,55.125],[-1.492,55.118],[-1.498,55.113],[-1.494,55.102]]]}},{"type":"Feature","properties":{"name":"Bolsover","code":"E14001109"},"geometry":{"type":"Polygon","coordinates":[[[-1.282,53.309],[-1.22,53.304],[-1.172,53.295],[-1.203,53.261],[-1.199,53.183],[-1.282,53.167],[-1.323,53.162],[-1.312,53.109],[-1.361,53.09],[-1.424,53.103],[-1.465,53.111],[-1.456,53.141],[-1.414,53.156],[-1.394,53.171],[-1.364,53.184],[-1.389,53.211],[-1.394,53.234],[-1.332,53.242],[-1.331,53.257],[-1.319,53.289],[-1.282,53.309]]]}},{"type":"Feature","properties":{"name":"Bolton North East","code":"E14001110"},"geometry":{"type":"Polygon","coordinates":[[[-2.379,53.631],[-2.369,53.596],[-2.358,53.553],[-2.381,53.557],[-2.404,53.567],[-2.456,53.574],[-2.446,53.598],[-2.448,53.632],[-2.422,53.624],[-2.379,53.631]]]}},{"type":"Feature","properties":{"name":"Bolton South and Walkden","code":"E14001111"},"geometry":{"type":"Polygon","coordinates":[[[-2.374,53.554],[-2.351,53.53],[-2.415,53.512],[-2.442,53.534],[-2.45,53.554],[-2.456,53.574],[-2.404,53.567],[-2.381,53.557],[-2.374,53.554]]]}},{"type":"Feature","properties":{"name":"Bolton West","code":"E14001112"},"geometry":{"type":"Polygon","coordinates":[[[-2.473,53.617],[-2.451,53.575],[-2.447,53.561],[-2.436,53.542],[-2.516,53.536],[-2.561,53.538],[-2.56,53.561],[-2.596,53.589],[-2.615,53.603],[-2.559,53.599],[-2.473,53.617]]]}},{"type":"Feature","properties":{"name":"Bootle","code":"E14001113"},"geometry":{"type":"Polygon","coordinates":[[[-2.952,53.491],[-2.975,53.443],[-3.041,53.466],[-3.021,53.494],[-2.98,53.497],[-2.952,53.491]]]}},{"type":"Feature","properties":{"name":"Boston and Skegness","code":"E14001114"},"geometry":{"type":"Polygon","coordinates":[[[0.027,52.898],[-0.08,52.867],[-0.119,52.882],[-0.152,52.894],[-0.18,52.915],[-0.19,52.996],[-0.138,53.03],[-0.108,53.041],[-0.095,53.081],[-0.059,53.114],[-0.023,53.119],[0.011,53.11],[0.051,53.115],[0.104,53.127],[0.125,53.159],[0.131,53.193],[0.114,53.22],[0.134,53.248],[0.193,53.244],[0.241,53.253],[0.322,53.266],[0.353,53.173],[0.348,53.121],[0.337,53.094],[0.326,53.093],[0.316,53.089],[0.2,53.033],[0.082,52.946],[0.056,52.93],[0.043,52.928],[0.053,52.916],[0.035,52.904],[0.028,52.899],[0.027,52.898]]]}},{"type":"Feature","properties":{"name":"Bradford East","code":"E14001118"},"geometry":{"type":"Polygon","coordinates":[[[-1.703,53.836],[-1.732,53.789],[-1.759,53.774],[-1.758,53.782],[-1.768,53.819],[-1.747,53.84],[-1.702,53.858],[-1.703,53.836]]]}},{"type":"Feature","properties":{"name":"Bradford South","code":"E14001119"},"geometry":{"type":"Polygon","coordinates":[[[-1.78,53.781],[-1.737,53.769],[-1.707,53.788],[-1.642,53.773],[-1.714,53.762],[-1.77,53.726],[-1.795,53.753],[-1.853,53.753],[-1.869,53.76],[-1.852,53.778],[-1.803,53.785],[-1.787,53.785],[-1.78,53.781]]]}},{"type":"Feature","properties":{"name":"Bradford West","code":"E14001120"},"geometry":{"type":"Polygon","coordinates":[[[-1.768,53.819],[-1.758,53.782],[-1.784,53.795],[-1.813,53.775],[-1.852,53.786],[-1.867,53.798],[-1.855,53.813],[-1.829,53.822],[-1.777,53.824],[-1.768,53.819]]]}},{"type":"Feature","properties":{"name":"Bridlington and The Wolds","code":"E14001127"},"geometry":{"type":"Polygon","coordinates":[[[-0.213,54.158],[-0.144,54.141],[-0.126,54.135],[-0.107,54.13],[-0.093,54.128],[-0.077,54.114],[-0.184,54.085],[-0.189,54.081],[-0.193,54.079],[-0.215,54.016],[-0.201,53.986],[-0.142,53.887],[-0.125,53.844],[-0.183,53.89],[-0.259,53.898],[-0.297,53.904],[-0.356,53.907],[-0.42,53.923],[-0.485,53.938],[-0.509,53.939],[-0.626,53.928],[-0.602,53.856],[-0.661,53.847],[-0.724,53.855],[-0.772,53.896],[-0.759,53.948],[-0.859,53.958],[-0.882,53.983],[-0.894,54.0],[-0.843,54.022],[-0.73,54.013],[-0.688,54.024],[-0.645,54.055],[-0.563,54.094],[-0.49,54.101],[-0.427,54.137],[-0.418,54.174],[-0.346,54.147],[-0.291,54.14],[-0.229,54.136],[-0.213,54.158]]]}},{"type":"Feature","properties":{"name":"Brigg and Immingham","code":"E14001128"},"geometry":{"type":"MultiPolygon","coordinates":[[[[-0.521,53.686]]],[[[-0.266,53.695],[-0.238,53.664],[-0.233,53.663],[-0.188,53.631],[-0.153,53.615],[-0.119,53.582],[-0.136,53.558],[-0.099,53.544],[-0.056,53.544],[-0.006,53.537],[0.017,53.526],[-0.04,53.513],[-0.09,53.478],[-0.132,53.436],[-0.154,53.466],[-0.214,53.526],[-0.195,53.572],[-0.251,53.585],[-0.283,53.604],[-0.301,53.596],[-0.348,53.556],[-0.451,53.558],[-0.491,53.548],[-0.546,53.545],[-0.592,53.565],[-0.594,53.597],[-0.63,53.621],[-0.526,53.678],[-0.47,53.698],[-0.395,53.7],[-0.332,53.711],[-0.266,53.695]]]]}},{"type":"Feature","properties":{"name":"Burnley","code":"E14001142"},"geometry":{"type":"Polygon","coordinates":[[[-2.112,53.806],[-2.13,53.772],[-2.156,53.735],[-2.233,53.738],[-2.263,53.746],[-2.314,53.747],[-2.336,53.792],[-2.302,53.821],[-2.27,53.815],[-2.232,53.836],[-2.152,53.824],[-2.112,53.806]]]}},{"type":"Feature","properties":{"name":"Bury North","code":"E14001144"},"geometry":{"type":"Polygon","coordinates":[[[-2.272,53.614],[-2.259,53.592],[-2.287,53.578],[-2.305,53.569],[-2.319,53.584],[-2.352,53.58],[-2.374,53.571],[-2.376,53.622],[-2.367,53.645],[-2.317,53.655],[-2.284,53.627],[-2.272,53.614]]]}},{"type":"Feature","properties":{"name":"Bury South","code":"E14001145"},"geometry":{"type":"Polygon","coordinates":[[[-2.281,53.583],[-2.248,53.563],[-2.252,53.545],[-2.245,53.512],[-2.276,53.502],[-2.31,53.527],[-2.367,53.553],[-2.342,53.578],[-2.321,53.582],[-2.296,53.57],[-2.286,53.573],[-2.281,53.583]]]}},{"type":"Feature","properties":{"name":"Calder Valley","code":"E14001147"},"geometry":{"type":"Polygon","coordinates":[[[-1.951,53.786],[-1.92,53.74],[-1.927,53.72],[-1.942,53.713],[-1.953,53.701],[-1.934,53.688],[-1.903,53.708],[-1.844,53.694],[-1.814,53.711],[-1.826,53.727],[-1.774,53.724],[-1.74,53.699],[-1.747,53.695],[-1.836,53.669],[-1.934,53.648],[-2.005,53.622],[-2.041,53.641],[-2.051,53.684],[-2.093,53.67],[-2.146,53.682],[-2.156,53.735],[-2.13,53.772],[-2.112,53.806],[-2.01,53.807],[-1.951,53.786]]]}},{"type":"Feature","properties":{"name":"Carlisle","code":"E14001152"},"geometry":{"type":"Polygon","coordinates":[[[-2.662,55.146],[-2.6,55.117],[-2.568,55.096],[-2.546,55.084],[-2.503,55.091],[-2.504,55.062],[-2.494,55.051],[-2.51,55.036],[-2.553,55.021],[-2.568,55.003],[-2.6,54.974],[-2.568,54.941],[-2.576,54.897],[-2.604,54.853],[-2.686,54.838],[-2.729,54.819],[-2.783,54.822],[-2.849,54.833],[-2.902,54.873],[-2.944,54.877],[-2.984,54.876],[-2.984,54.896],[-3.011,54.92],[-3.0,54.937],[-3.044,54.947],[-3.067,54.949],[-3.083,54.94],[-3.116,54.938],[-3.131,54.948],[-3.114,54.953],[-3.095,54.966],[-3.072,54.975],[-3.057,54.983],[-3.038,54.974],[-3.058,54.992],[-3.049,55.007],[-3.034,55.03],[-3.051,55.053],[-2.936,55.06],[-2.897,55.078],[-2.877,55.095],[-2.844,55.117],[-2.833,55.132],[-2.746,55.158],[-2.683,55.167],[-2.662,55.146]]]}},{"type":"Feature","properties":{"name":"Cheadle","code":"E14001158"},"geometry":{"type":"Polygon","coordinates":[[[-2.146,53.393],[-2.117,53.375],[-2.151,53.348],[-2.181,53.344],[-2.222,53.36],[-2.223,53.401],[-2.188,53.388],[-2.146,53.393]]]}},{"type":"Feature","properties":{"name":"Chester North and Neston","code":"E14001163"},"geometry":{"type":"Polygon","coordinates":[[[-2.98,53.305],[-2.952,53.29],[-2.938,53.267],[-2.876,53.241],[-2.868,53.212],[-2.9,53.183],[-2.949,53.211],[-3.086,53.257],[-3.092,53.265],[-3.09,53.268],[-3.085,53.271],[-3.088,53.273],[-3.079,53.278],[-3.078,53.279],[-3.082,53.281],[-3.093,53.288],[-3.101,53.291],[-3.104,53.295],[-3.074,53.316],[-3.013,53.299],[-2.98,53.305]]]}},{"type":"Feature","properties":{"name":"Chester South and Eddisbury","code":"E14001164"},"geometry":{"type":"Polygon","coordinates":[[[-2.557,53.26],[-2.578,53.245],[-2.61,53.218],[-2.58,53.197],[-2.546,53.151],[-2.5,53.164],[-2.452,53.139],[-2.499,53.105],[-2.524,53.071],[-2.497,53.036],[-2.434,53.055],[-2.38,53.061],[-2.382,53.046],[-2.383,53.008],[-2.411,52.988],[-2.475,52.962],[-2.521,52.974],[-2.561,52.965],[-2.598,52.963],[-2.606,52.979],[-2.652,52.995],[-2.727,52.983],[-2.781,52.996],[-2.836,52.997],[-2.861,53.023],[-2.863,53.049],[-2.867,53.056],[-2.866,53.066],[-2.876,53.082],[-2.894,53.098],[-2.892,53.109],[-2.921,53.118],[-2.985,53.148],[-2.947,53.167],[-2.9,53.183],[-2.817,53.199],[-2.752,53.206],[-2.691,53.239],[-2.659,53.264],[-2.617,53.288],[-2.564,53.263],[-2.557,53.26]]]}},{"type":"Feature","properties":{"name":"Chesterfield","code":"E14001165"},"geometry":{"type":"Polygon","coordinates":[[[-1.331,53.257],[-1.332,53.242],[-1.394,53.234],[-1.421,53.212],[-1.468,53.22],[-1.472,53.233],[-1.479,53.252],[-1.461,53.278],[-1.411,53.267],[-1.355,53.27],[-1.331,53.257]]]}},{"type":"Feature","properties":{"name":"Chorley","code":"E14001170"},"geometry":{"type":"Polygon","coordinates":[[[-2.562,53.747],[-2.539,53.715],[-2.518,53.677],[-2.52,53.63],[-2.569,53.596],[-2.617,53.596],[-2.696,53.605],[-2.676,53.624],[-2.669,53.654],[-2.708,53.676],[-2.677,53.694],[-2.652,53.712],[-2.61,53.737],[-2.562,53.747]]]}},{"type":"Feature","properties":{"name":"Colne Valley","code":"E14001177"},"geometry":{"type":"Polygon","coordinates":[[[-1.777,53.614],[-1.733,53.585],[-1.718,53.576],[-1.797,53.534],[-1.873,53.54],[-1.925,53.553],[-2.005,53.622],[-1.934,53.648],[-1.836,53.669],[-1.816,53.649],[-1.837,53.616],[-1.777,53.614]]]}},{"type":"Feature","properties":{"name":"Congleton","code":"E14001178"},"geometry":{"type":"Polygon","coordinates":[[[-2.309,53.246],[-2.243,53.202],[-2.211,53.179],[-2.172,53.19],[-2.141,53.184],[-2.177,53.146],[-2.253,53.094],[-2.294,53.078],[-2.332,53.093],[-2.362,53.115],[-2.415,53.118],[-2.455,53.161],[-2.407,53.174],[-2.369,53.183],[-2.395,53.206],[-2.401,53.222],[-2.364,53.224],[-2.329,53.253],[-2.309,53.246]]]}},{"type":"Feature","properties":{"name":"Cramlington and Killingworth","code":"E14001183"},"geometry":{"type":"Polygon","coordinates":[[[-1.494,55.102],[-1.471,55.085],[-1.466,55.08],[-1.488,55.054],[-1.499,55.037],[-1.514,55.021],[-1.55,55.025],[-1.63,55.041],[-1.668,55.041],[-1.698,55.052],[-1.691,55.07],[-1.63,55.068],[-1.631,55.111],[-1.607,55.116],[-1.577,55.108],[-1.53,55.096],[-1.494,55.102]]]}},{"type":"Feature","properties":{"name":"Crewe and Nantwich","code":"E14001185"},"geometry":{"type":"Polygon","coordinates":[[[-2.317,53.081],[-2.358,53.055],[-2.39,53.064],[-2.475,53.06],[-2.518,53.049],[-2.52,53.083],[-2.498,53.112],[-2.415,53.118],[-2.362,53.115],[-2.332,53.093],[-2.317,53.081]]]}},{"type":"Feature","properties":{"name":"Darlington","code":"E14001190"},"geometry":{"type":"Polygon","coordinates":[[[-1.619,54.619],[-1.593,54.605],[-1.583,54.581],[-1.514,54.595],[-1.491,54.578],[-1.541,54.555],[-1.518,54.536],[-1.528,54.509],[-1.584,54.508],[-1.634,54.514],[-1.658,54.535],[-1.705,54.549],[-1.704,54.572],[-1.657,54.615],[-1.619,54.619]]]}},{"type":"Feature","properties":{"name":"Derbyshire Dales","code":"E14001195"},"geometry":{"type":"Polygon","coordinates":[[[-1.599,53.311],[-1.585,53.263],[-1.569,53.223],[-1.548,53.2],[-1.509,53.146],[-1.465,53.111],[-1.48,53.074],[-1.491,53.043],[-1.502,53.022],[-1.493,53.004],[-1.514,52.995],[-1.551,53.016],[-1.566,53.022],[-1.599,52.998],[-1.581,52.961],[-1.613,52.944],[-1.649,52.937],[-1.631,52.906],[-1.614,52.862],[-1.627,52.857],[-1.704,52.867],[-1.726,52.863],[-1.752,52.869],[-1.802,52.886],[-1.828,52.887],[-1.848,52.909],[-1.856,52.927],[-1.83,52.946],[-1.806,52.98],[-1.788,52.989],[-1.764,53.021],[-1.779,53.043],[-1.791,53.078],[-1.784,53.103],[-1.822,53.137],[-1.874,53.195],[-1.91,53.216],[-1.887,53.217],[-1.873,53.216],[-1.832,53.203],[-1.874,53.227],[-1.821,53.252],[-1.798,53.26],[-1.823,53.303],[-1.735,53.335],[-1.7,53.324],[-1.664,53.381],[-1.626,53.352],[-1.628,53.316],[-1.599,53.311]]]}},{"type":"Feature","properties":{"name":"Dewsbury and Batley","code":"E14001196"},"geometry":{"type":"Polygon","coordinates":[[[-1.632,53.731],[-1.571,53.706],[-1.605,53.679],[-1.619,53.646],[-1.612,53.627],[-1.681,53.624],[-1.698,53.631],[-1.705,53.657],[-1.661,53.663],[-1.667,53.697],[-1.659,53.731],[-1.632,53.731]]]}},{"type":"Feature","properties":{"name":"Doncaster Central","code":"E14001198"},"geometry":{"type":"Polygon","coordinates":[[[-1.045,53.559],[-0.995,53.535],[-1.063,53.508],[-1.094,53.484],[-1.078,53.46],[-1.052,53.435],[-1.087,53.426],[-1.133,53.409],[-1.17,53.435],[-1.238,53.433],[-1.243,53.441],[-1.172,53.485],[-1.162,53.508],[-1.131,53.533],[-1.058,53.558],[-1.045,53.559]]]}},{"type":"Feature","properties":{"name":"Doncaster East and the Isle of Axholme","code":"E14001199"},"geometry":{"type":"Polygon","coordinates":[[[-0.74,53.52],[-0.784,53.477],[-0.916,53.46],[-0.986,53.472],[-1.014,53.426],[-1.052,53.435],[-1.078,53.46],[-1.094,53.484],[-1.063,53.508],[-0.995,53.535],[-1.045,53.559],[-0.977,53.612],[-0.947,53.659],[-0.789,53.659],[-0.747,53.67],[-0.694,53.686],[-0.7,53.617],[-0.739,53.593],[-0.743,53.537],[-0.74,53.52]]]}},{"type":"Feature","properties":{"name":"Doncaster North","code":"E14001200"},"geometry":{"type":"Polygon","coordinates":[[[-0.99,53.659],[-0.989,53.602],[-1.058,53.558],[-1.131,53.533],[-1.162,53.508],[-1.213,53.487],[-1.277,53.489],[-1.277,53.521],[-1.297,53.551],[-1.288,53.581],[-1.258,53.6],[-1.228,53.617],[-1.211,53.641],[-1.129,53.635],[-1.053,53.652],[-0.99,53.659]]]}},{"type":"Feature","properties":{"name":"Ellesmere Port and Bromborough","code":"E14001222"},"geometry":{"type":"Polygon","coordinates":[[[-2.996,53.368],[-2.958,53.333],[-2.905,53.299],[-2.893,53.286],[-2.938,53.267],[-2.952,53.29],[-2.98,53.305],[-2.996,53.368]]]}},{"type":"Feature","properties":{"name":"Fylde","code":"E14001242"},"geometry":{"type":"Polygon","coordinates":[[[-2.826,53.82],[-2.79,53.757],[-2.806,53.752],[-2.823,53.745],[-2.876,53.738],[-2.93,53.733],[-2.953,53.733],[-3.027,53.743],[-3.057,53.777],[-3.004,53.791],[-3.014,53.829],[-3.015,53.843],[-2.981,53.857],[-2.956,53.859],[-2.923,53.856],[-2.876,53.857],[-2.858,53.843],[-2.826,53.82]]]}},{"type":"Feature","properties":{"name":"Gainsborough","code":"E14001243"},"geometry":{"type":"Polygon","coordinates":[[[-0.132,53.436],[-0.217,53.424],[-0.223,53.386],[-0.255,53.33],[-0.296,53.303],[-0.305,53.269],[-0.292,53.261],[-0.276,53.234],[-0.29,53.179],[-0.347,53.215],[-0.496,53.247],[-0.622,53.258],[-0.688,53.258],[-0.778,53.252],[-0.766,53.293],[-0.747,53.304],[-0.757,53.34],[-0.791,53.363],[-0.777,53.39],[-0.818,53.426],[-0.784,53.477],[-0.74,53.52],[-0.628,53.507],[-0.627,53.462],[-0.487,53.48],[-0.444,53.509],[-0.431,53.546],[-0.457,53.559],[-0.356,53.556],[-0.303,53.591],[-0.287,53.612],[-0.248,53.594],[-0.205,53.572],[-0.211,53.532],[-0.182,53.469],[-0.134,53.441],[-0.132,53.436]]]}},{"type":"Feature","properties":{"name":"Gateshead Central and Whickham","code":"E14001244"},"geometry":{"type":"Polygon","coordinates":[[[-1.594,54.97],[-1.574,54.95],[-1.571,54.924],[-1.61,54.934],[-1.67,54.921],[-1.691,54.903],[-1.737,54.924],[-1.717,54.938],[-1.68,54.964],[-1.638,54.957],[-1.594,54.97]]]}},{"type":"Feature","properties":{"name":"Goole and Pocklington","code":"E14001250"},"geometry":{"type":"Polygon","coordinates":[[[-0.58,53.858],[-0.638,53.831],[-0.616,53.799],[-0.526,53.805],[-0.453,53.817],[-0.427,53.803],[-0.452,53.783],[-0.469,53.736],[-0.487,53.716],[-0.621,53.73],[-0.7,53.704],[-0.803,53.705],[-0.746,53.703],[-0.7,53.696],[-0.702,53.677],[-0.753,53.663],[-0.806,53.646],[-0.99,53.661],[-1.071,53.66],[-1.081,53.685],[-1.054,53.697],[-1.0,53.699],[-0.963,53.701],[-0.924,53.719],[-0.963,53.746],[-0.937,53.78],[-0.94,53.833],[-0.939,53.875],[-0.95,53.894],[-0.922,53.921],[-0.934,53.968],[-0.909,53.997],[-0.874,53.978],[-0.84,53.943],[-0.751,53.923],[-0.768,53.887],[-0.709,53.848],[-0.649,53.848],[-0.58,53.858]]]}},{"type":"Feature","properties":{"name":"Gorton and Denton","code":"E14001251"},"geometry":{"type":"Polygon","coordinates":[[[-2.15,53.471],[-2.13,53.465],[-2.094,53.459],[-2.116,53.441],[-2.142,53.438],[-2.167,53.449],[-2.199,53.427],[-2.205,53.455],[-2.15,53.471]]]}},{"type":"Feature","properties":{"name":"Great Grimsby and Cleethorpes","code":"E14001255"},"geometry":{"type":"Polygon","coordinates":[[[0.008,53.535],[-0.052,53.551],[-0.084,53.539],[-0.137,53.55],[-0.131,53.576],[-0.095,53.582],[-0.07,53.583],[-0.028,53.562],[0.008,53.535]]]}},{"type":"Feature","properties":{"name":"Halifax","code":"E14001262"},"geometry":{"type":"Polygon","coordinates":[[[-1.896,53.781],[-1.858,53.752],[-1.809,53.764],[-1.826,53.727],[-1.814,53.711],[-1.844,53.694],[-1.903,53.708],[-1.934,53.688],[-1.953,53.701],[-1.942,53.713],[-1.927,53.72],[-1.92,53.74],[-1.951,53.786],[-1.896,53.781]]]}},{"type":"Feature","properties":{"name":"Harrogate and Knaresborough","code":"E14001269"},"geometry":{"type":"Polygon","coordinates":[[[-1.544,53.955],[-1.558,53.962],[-1.592,53.984],[-1.612,54.019],[-1.608,54.029],[-1.573,54.032],[-1.541,54.02],[-1.535,54.047],[-1.503,54.059],[-1.471,54.076],[-1.399,54.057],[-1.357,54.032],[-1.346,54.0],[-1.399,53.994],[-1.437,53.993],[-1.49,53.987],[-1.518,53.953],[-1.544,53.955]]]}},{"type":"Feature","properties":{"name":"Hartlepool","code":"E14001272"},"geometry":{"type":"Polygon","coordinates":[[[-1.259,54.726],[-1.232,54.718],[-1.175,54.692],[-1.188,54.694],[-1.199,54.686],[-1.197,54.678],[-1.169,54.644],[-1.166,54.632],[-1.205,54.623],[-1.232,54.626],[-1.267,54.624],[-1.316,54.645],[-1.368,54.643],[-1.344,54.669],[-1.319,54.691],[-1.29,54.718],[-1.259,54.726]]]}},{"type":"Feature","properties":{"name":"Hazel Grove","code":"E14001277"},"geometry":{"type":"Polygon","coordinates":[[[-2.093,53.438],[-2.039,53.427],[-1.992,53.415],[-2.021,53.375],[-2.06,53.359],[-2.128,53.365],[-2.134,53.396],[-2.149,53.41],[-2.12,53.436],[-2.093,53.438]]]}},{"type":"Feature","properties":{"name":"Hexham","code":"E14001285"},"geometry":{"type":"Polygon","coordinates":[[[-1.648,55.169],[-1.649,55.139],[-1.626,55.108],[-1.631,55.085],[-1.691,55.073],[-1.711,55.053],[-1.679,55.039],[-1.7,55.011],[-1.726,54.989],[-1.752,54.983],[-1.785,54.985],[-1.824,54.962],[-1.841,54.93],[-1.835,54.899],[-1.86,54.878],[-1.888,54.844],[-1.921,54.838],[-1.932,54.851],[-1.975,54.862],[-2.04,54.848],[-2.138,54.842],[-2.199,54.807],[-2.283,54.798],[-2.348,54.807],[-2.412,54.856],[-2.523,54.806],[-2.573,54.854],[-2.566,54.919],[-2.568,54.958],[-2.587,54.982],[-2.57,55.007],[-2.528,55.029],[-2.506,55.037],[-2.495,55.053],[-2.501,55.075],[-2.518,55.085],[-2.562,55.083],[-2.583,55.102],[-2.621,55.129],[-2.677,55.155],[-2.648,55.22],[-2.628,55.251],[-2.573,55.297],[-2.531,55.323],[-2.461,55.353],[-2.4,55.348],[-2.329,55.368],[-2.25,55.333],[-2.164,55.292],[-2.133,55.254],[-2.124,55.233],[-2.16,55.204],[-2.133,55.196],[-2.091,55.181],[-2.036,55.19],[-1.955,55.214],[-1.924,55.248],[-1.854,55.264],[-1.807,55.265],[-1.767,55.291],[-1.691,55.302],[-1.656,55.282],[-1.705,55.26],[-1.723,55.246],[-1.761,55.22],[-1.731,55.176],[-1.706,55.15],[-1.657,55.166],[-1.648,55.169]]]}},{"type":"Feature","properties":{"name":"Heywood and Middleton North","code":"E14001286"},"geometry":{"type":"Polygon","coordinates":[[[-2.185,53.638],[-2.165,53.608],[-2.164,53.563],[-2.192,53.549],[-2.242,53.557],[-2.265,53.586],[-2.27,53.592],[-2.262,53.607],[-2.27,53.646],[-2.207,53.661],[-2.185,53.638]]]}},{"type":"Feature","properties":{"name":"High Peak","code":"E14001287"},"geometry":{"type":"Polygon","coordinates":[[[-1.822,53.521],[-1.801,53.481],[-1.752,53.465],[-1.744,53.431],[-1.705,53.405],[-1.662,53.391],[-1.697,53.335],[-1.725,53.332],[-1.806,53.317],[-1.802,53.273],[-1.813,53.255],[-1.858,53.233],[-1.828,53.205],[-1.863,53.205],[-1.883,53.203],[-1.918,53.218],[-1.899,53.2],[-1.987,53.214],[-2.0,53.245],[-2.002,53.319],[-2.005,53.346],[-2.027,53.364],[-2.017,53.378],[-2.014,53.416],[-2.014,53.44],[-1.986,53.455],[-1.975,53.488],[-1.917,53.514],[-1.894,53.534],[-1.822,53.521]]]}},{"type":"Feature","properties":{"name":"Houghton and Sunderland South","code":"E14001295"},"geometry":{"type":"Polygon","coordinates":[[[-1.369,54.858],[-1.414,54.82],[-1.455,54.8],[-1.494,54.823],[-1.507,54.871],[-1.467,54.904],[-1.428,54.902],[-1.38,54.877],[-1.383,54.861],[-1.369,54.858]]]}},{"type":"Feature","properties":{"name":"Huddersfield","code":"E14001297"},"geometry":{"type":"Polygon","coordinates":[[[-1.731,53.68],[-1.71,53.648],[-1.705,53.627],[-1.816,53.608],[-1.841,53.624],[-1.806,53.668],[-1.76,53.693],[-1.731,53.68]]]}},{"type":"Feature","properties":{"name":"Hyndburn","code":"E14001299"},"geometry":{"type":"Polygon","coordinates":[[[-2.342,53.795],[-2.314,53.752],[-2.313,53.707],[-2.307,53.682],[-2.405,53.707],[-2.434,53.728],[-2.466,53.781],[-2.393,53.814],[-2.366,53.793],[-2.342,53.795]]]}},{"type":"Feature","properties":{"name":"Jarrow and Gateshead East","code":"E14001307"},"geometry":{"type":"Polygon","coordinates":[[[-1.452,54.985],[-1.463,54.959],[-1.461,54.93],[-1.562,54.934],[-1.585,54.954],[-1.552,54.958],[-1.506,54.986],[-1.471,54.984],[-1.452,54.985]]]}},{"type":"Feature","properties":{"name":"Keighley and Ilkley","code":"E14001308"},"geometry":{"type":"Polygon","coordinates":[[[-1.778,53.923],[-1.838,53.887],[-1.852,53.868],[-1.892,53.852],[-1.927,53.821],[-1.951,53.786],[-2.032,53.809],[-2.032,53.859],[-1.98,53.871],[-1.977,53.926],[-1.97,53.943],[-1.928,53.95],[-1.88,53.963],[-1.849,53.936],[-1.803,53.936],[-1.778,53.923]]]}},{"type":"Feature","properties":{"name":"Kingston upon Hull East","code":"E14001313"},"geometry":{"type":"Polygon","coordinates":[[[-0.243,53.739],[-0.307,53.742],[-0.33,53.748],[-0.328,53.766],[-0.33,53.8],[-0.278,53.782],[-0.241,53.755],[-0.243,53.739]]]}},{"type":"Feature","properties":{"name":"Kingston upon Hull North and Cottingham","code":"E14001314"},"geometry":{"type":"Polygon","coordinates":[[[-0.33,53.748],[-0.389,53.754],[-0.438,53.771],[-0.409,53.795],[-0.349,53.809],[-0.347,53.781],[-0.333,53.752],[-0.33,53.748]]]}},{"type":"Feature","properties":{"name":"Kingston upon Hull West and Haltemprice","code":"E14001315"},"geometry":{"type":"MultiPolygon","coordinates":[[[[-0.331,53.738]]],[[[-0.438,53.771],[-0.389,53.754],[-0.33,53.748],[-0.397,53.723],[-0.434,53.719],[-0.463,53.717],[-0.483,53.759],[-0.438,53.771]]]]}},{"type":"Feature","properties":{"name":"Knowsley","code":"E14001317"},"geometry":{"type":"Polygon","coordinates":[[[-2.825,53.485],[-2.795,53.443],[-2.813,53.417],[-2.821,53.396],[-2.882,53.408],[-2.862,53.43],[-2.871,53.453],[-2.923,53.475],[-2.899,53.492],[-2.85,53.493],[-2.825,53.485]]]}},{"type":"Feature","properties":{"name":"Lancaster and Wyre","code":"E14001318"},"geometry":{"type":"Polygon","coordinates":[[[-2.793,54.069],[-2.741,54.034],[-2.73,54.009],[-2.61,54.027],[-2.581,54.0],[-2.589,53.96],[-2.626,53.939],[-2.63,53.893],[-2.706,53.869],[-2.747,53.851],[-2.782,53.833],[-2.803,53.826],[-2.858,53.843],[-2.876,53.857],[-2.923,53.856],[-2.956,53.859],[-2.972,53.865],[-2.966,53.874],[-2.99,53.894],[-2.993,53.906],[-2.991,53.907],[-2.928,53.95],[-2.916,53.949],[-2.913,53.945],[-2.905,53.938],[-2.897,53.941],[-2.89,53.948],[-2.883,53.946],[-2.874,53.952],[-2.87,53.96],[-2.857,53.963],[-2.846,53.966],[-2.867,53.968],[-2.861,53.993],[-2.834,53.999],[-2.829,54.016],[-2.831,54.036],[-2.832,54.033],[-2.83,54.037],[-2.836,54.041],[-2.842,54.041],[-2.804,54.053],[-2.793,54.063],[-2.802,54.054],[-2.833,54.054],[-2.793,54.069]]]}},{"type":"Feature","properties":{"name":"Leeds Central and Headingley","code":"E14001319"},"geometry":{"type":"Polygon","coordinates":[[[-1.577,53.842],[-1.545,53.815],[-1.534,53.8],[-1.633,53.828],[-1.603,53.855],[-1.577,53.842]]]}},{"type":"Feature","properties":{"name":"Leeds East","code":"E14001320"},"geometry":{"type":"Polygon","coordinates":[[[-1.345,53.809],[-1.389,53.767],[-1.394,53.748],[-1.445,53.76],[-1.483,53.789],[-1.458,53.791],[-1.506,53.81],[-1.512,53.817],[-1.461,53.844],[-1.436,53.825],[-1.407,53.81],[-1.363,53.805],[-1.345,53.809]]]}},{"type":"Feature","properties":{"name":"Leeds North East","code":"E14001321"},"geometry":{"type":"Polygon","coordinates":[[[-1.561,53.889],[-1.477,53.83],[-1.528,53.81],[-1.561,53.827],[-1.588,53.869],[-1.573,53.89],[-1.561,53.889]]]}},{"type":"Feature","properties":{"name":"Leeds North West","code":"E14001322"},"geometry":{"type":"Polygon","coordinates":[[[-1.553,53.903],[-1.58,53.888],[-1.577,53.842],[-1.603,53.855],[-1.633,53.828],[-1.693,53.853],[-1.746,53.863],[-1.779,53.879],[-1.777,53.894],[-1.727,53.888],[-1.718,53.909],[-1.689,53.913],[-1.621,53.903],[-1.569,53.911],[-1.553,53.903]]]}},{"type":"Feature","properties":{"name":"Leeds South","code":"E14001323"},"geometry":{"type":"Polygon","coordinates":[[[-1.482,53.766],[-1.564,53.747],[-1.59,53.771],[-1.559,53.794],[-1.506,53.81],[-1.458,53.791],[-1.483,53.789],[-1.482,53.766]]]}},{"type":"Feature","properties":{"name":"Leeds South West and Morley","code":"E14001324"},"geometry":{"type":"Polygon","coordinates":[[[-1.576,53.788],[-1.575,53.766],[-1.515,53.743],[-1.502,53.736],[-1.489,53.723],[-1.559,53.699],[-1.623,53.719],[-1.663,53.767],[-1.642,53.793],[-1.591,53.794],[-1.576,53.788]]]}},{"type":"Feature","properties":{"name":"Leeds West and Pudsey","code":"E14001325"},"geometry":{"type":"Polygon","coordinates":[[[-1.633,53.828],[-1.626,53.802],[-1.641,53.78],[-1.71,53.793],[-1.688,53.842],[-1.633,53.828]]]}},{"type":"Feature","properties":{"name":"Leigh and Atherton","code":"E14001329"},"geometry":{"type":"Polygon","coordinates":[[[-2.451,53.529],[-2.442,53.513],[-2.468,53.499],[-2.549,53.462],[-2.597,53.457],[-2.612,53.481],[-2.588,53.499],[-2.538,53.513],[-2.527,53.506],[-2.51,53.534],[-2.451,53.529]]]}},{"type":"Feature","properties":{"name":"Lincoln","code":"E14001336"},"geometry":{"type":"Polygon","coordinates":[[[-0.495,53.225],[-0.527,53.219],[-0.51,53.193],[-0.495,53.167],[-0.56,53.161],[-0.614,53.203],[-0.654,53.237],[-0.611,53.256],[-0.495,53.225]]]}},{"type":"Feature","properties":{"name":"Liverpool Garston","code":"E14001337"},"geometry":{"type":"Polygon","coordinates":[[[-2.837,53.4],[-2.853,53.364],[-2.826,53.332],[-2.878,53.334],[-2.922,53.357],[-2.881,53.388],[-2.88,53.406],[-2.837,53.4]]]}},{"type":"Feature","properties":{"name":"Liverpool Riverside","code":"E14001338"},"geometry":{"type":"Polygon","coordinates":[[[-2.94,53.433],[-2.961,53.411],[-2.968,53.375],[-3.002,53.411],[-2.958,53.442],[-2.94,53.433]]]}},{"type":"Feature","properties":{"name":"Liverpool Walton","code":"E14001339"},"geometry":{"type":"Polygon","coordinates":[[[-2.919,53.478],[-2.9,53.469],[-2.889,53.439],[-2.958,53.442],[-2.967,53.468],[-2.919,53.478]]]}},{"type":"Feature","properties":{"name":"Liverpool Wavertree","code":"E14001340"},"geometry":{"type":"Polygon","coordinates":[[[-2.882,53.408],[-2.874,53.391],[-2.922,53.363],[-2.968,53.375],[-2.954,53.412],[-2.933,53.42],[-2.882,53.408]]]}},{"type":"Feature","properties":{"name":"Liverpool West Derby","code":"E14001341"},"geometry":{"type":"Polygon","coordinates":[[[-2.871,53.443],[-2.845,53.413],[-2.914,53.409],[-2.948,53.421],[-2.927,53.428],[-2.871,53.443]]]}},{"type":"Feature","properties":{"name":"Louth and Horncastle","code":"E14001343"},"geometry":{"type":"Polygon","coordinates":[[[0.322,53.267],[0.236,53.241],[0.192,53.251],[0.111,53.252],[0.131,53.216],[0.118,53.181],[0.132,53.156],[0.089,53.126],[0.049,53.109],[0.003,53.105],[-0.034,53.118],[-0.07,53.104],[-0.1,53.079],[-0.119,53.049],[-0.196,53.07],[-0.238,53.134],[-0.291,53.195],[-0.282,53.24],[-0.3,53.262],[-0.302,53.275],[-0.31,53.32],[-0.25,53.334],[-0.229,53.398],[-0.214,53.429],[-0.123,53.437],[-0.095,53.486],[-0.029,53.517],[0.017,53.525],[0.05,53.512],[0.057,53.518],[0.057,53.521],[0.079,53.517],[0.085,53.497],[0.102,53.493],[0.103,53.492],[0.108,53.487],[0.109,53.49],[0.118,53.495],[0.122,53.498],[0.13,53.484],[0.153,53.491],[0.158,53.481],[0.179,53.465],[0.191,53.45],[0.19,53.44],[0.205,53.418],[0.209,53.416],[0.208,53.411],[0.233,53.397],[0.244,53.372],[0.3,53.294],[0.322,53.267]]]}},{"type":"Feature","properties":{"name":"Macclesfield","code":"E14001347"},"geometry":{"type":"Polygon","coordinates":[[[-2.031,53.37],[-2.011,53.356],[-2.009,53.331],[-2.009,53.261],[-1.976,53.228],[-2.029,53.193],[-2.07,53.172],[-2.12,53.175],[-2.147,53.185],[-2.182,53.188],[-2.216,53.19],[-2.28,53.212],[-2.29,53.255],[-2.243,53.261],[-2.215,53.288],[-2.154,53.328],[-2.128,53.365],[-2.06,53.359],[-2.031,53.37]]]}},{"type":"Feature","properties":{"name":"Makerfield","code":"E14001350"},"geometry":{"type":"Polygon","coordinates":[[[-2.569,53.548],[-2.529,53.523],[-2.542,53.52],[-2.567,53.499],[-2.599,53.495],[-2.663,53.493],[-2.716,53.511],[-2.719,53.544],[-2.664,53.532],[-2.616,53.532],[-2.581,53.55],[-2.569,53.548]]]}},{"type":"Feature","properties":{"name":"Manchester Central","code":"E14001352"},"geometry":{"type":"Polygon","coordinates":[[[-2.12,53.506],[-2.169,53.489],[-2.219,53.475],[-2.255,53.499],[-2.245,53.512],[-2.217,53.495],[-2.156,53.516],[-2.12,53.506]]]}},{"type":"Feature","properties":{"name":"Manchester Rusholme","code":"E14001353"},"geometry":{"type":"Polygon","coordinates":[[[-2.194,53.472],[-2.258,53.439],[-2.268,53.47],[-2.219,53.475],[-2.194,53.472]]]}},{"type":"Feature","properties":{"name":"Manchester Withington","code":"E14001354"},"geometry":{"type":"Polygon","coordinates":[[[-2.205,53.441],[-2.223,53.401],[-2.244,53.412],[-2.263,53.416],[-2.3,53.437],[-2.286,53.449],[-2.205,53.441]]]}},{"type":"Feature","properties":{"name":"Mansfield","code":"E14001355"},"geometry":{"type":"Polygon","coordinates":[[[-1.168,53.116],[-1.241,53.153],[-1.229,53.163],[-1.23,53.178],[-1.171,53.219],[-1.103,53.236],[-1.104,53.209],[-1.126,53.157],[-1.136,53.119],[-1.168,53.116]]]}},{"type":"Feature","properties":{"name":"Mid Cheshire","code":"E14001361"},"geometry":{"type":"Polygon","coordinates":[[[-2.407,53.174],[-2.455,53.161],[-2.5,53.164],[-2.546,53.151],[-2.58,53.197],[-2.61,53.218],[-2.578,53.245],[-2.557,53.26],[-2.51,53.273],[-2.473,53.25],[-2.475,53.209],[-2.443,53.201],[-2.407,53.174]]]}},{"type":"Feature","properties":{"name":"Middlesbrough and Thornaby East","code":"E14001367"},"geometry":{"type":"Polygon","coordinates":[[[-1.216,54.581],[-1.202,54.58],[-1.172,54.559],[-1.229,54.532],[-1.3,54.533],[-1.265,54.569],[-1.252,54.591],[-1.216,54.581]]]}},{"type":"Feature","properties":{"name":"Middlesbrough South and East Cleveland","code":"E14001368"},"geometry":{"type":"Polygon","coordinates":[[[-0.793,54.558],[-0.849,54.53],[-0.881,54.497],[-1.037,54.494],[-1.174,54.503],[-1.264,54.513],[-1.237,54.544],[-1.167,54.554],[-1.148,54.539],[-1.053,54.565],[-1.011,54.572],[-0.956,54.582],[-0.9,54.575],[-0.872,54.57],[-0.79,54.561],[-0.793,54.558]]]}},{"type":"Feature","properties":{"name":"Morecambe and Lunesdale","code":"E14001372"},"geometry":{"type":"MultiPolygon","coordinates":[[[[-2.893,53.99]]],[[[-2.801,54.122]]],[[[-2.537,54.394],[-2.514,54.368],[-2.444,54.376],[-2.336,54.34],[-2.323,54.311],[-2.317,54.287],[-2.338,54.238],[-2.397,54.239],[-2.461,54.227],[-2.544,54.158],[-2.563,54.123],[-2.524,54.102],[-2.471,54.077],[-2.519,54.021],[-2.584,54.019],[-2.702,54.009],[-2.765,54.013],[-2.774,54.065],[-2.836,54.061],[-2.85,54.041],[-2.841,54.036],[-2.841,54.029],[-2.84,54.023],[-2.838,54.023],[-2.835,54.016],[-2.838,54.008],[-2.867,54.01],[-2.87,54.004],[-2.881,53.989],[-2.9,53.992],[-2.903,54.021],[-2.913,54.034],[-2.918,54.036],[-2.906,54.046],[-2.889,54.066],[-2.879,54.075],[-2.857,54.079],[-2.821,54.094],[-2.794,54.127],[-2.805,54.131],[-2.828,54.144],[-2.863,54.155],[-2.857,54.179],[-2.835,54.205],[-2.821,54.209],[-2.79,54.231],[-2.749,54.237],[-2.764,54.248],[-2.76,54.268],[-2.701,54.3],[-2.678,54.273],[-2.647,54.273],[-2.585,54.274],[-2.572,54.3],[-2.573,54.351],[-2.583,54.388],[-2.537,54.394]]]]}},{"type":"Feature","properties":{"name":"Newark","code":"E14001375"},"geometry":{"type":"Polygon","coordinates":[[[-0.787,53.384],[-0.774,53.364],[-0.76,53.325],[-0.758,53.293],[-0.764,53.273],[-0.735,53.244],[-0.676,53.218],[-0.762,53.188],[-0.715,53.137],[-0.721,53.104],[-0.698,53.075],[-0.716,53.059],[-0.777,53.025],[-0.778,52.984],[-0.822,52.959],[-0.841,52.928],[-0.924,52.907],[-0.934,52.937],[-1.006,52.956],[-1.017,52.98],[-0.927,53.024],[-1.002,53.056],[-1.037,53.086],[-1.026,53.096],[-0.997,53.112],[-0.972,53.14],[-0.957,53.168],[-0.961,53.195],[-0.949,53.214],[-1.024,53.248],[-0.986,53.264],[-0.972,53.283],[-0.909,53.306],[-0.921,53.333],[-0.962,53.343],[-0.924,53.356],[-0.945,53.407],[-0.87,53.394],[-0.787,53.384]]]}},{"type":"Feature","properties":{"name":"Newcastle upon Tyne Central and West","code":"E14001377"},"geometry":{"type":"Polygon","coordinates":[[[-1.68,55.01],[-1.616,54.995],[-1.621,54.962],[-1.684,54.966],[-1.712,54.974],[-1.72,54.968],[-1.737,54.987],[-1.698,55.002],[-1.68,55.01]]]}},{"type":"Feature","properties":{"name":"Newcastle upon Tyne East and Wallsend","code":"E14001378"},"geometry":{"type":"Polygon","coordinates":[[[-1.511,55.019],[-1.503,54.988],[-1.535,54.977],[-1.566,54.965],[-1.6,54.97],[-1.582,54.998],[-1.543,55.015],[-1.511,55.019]]]}},{"type":"Feature","properties":{"name":"Newcastle upon Tyne North","code":"E14001379"},"geometry":{"type":"Polygon","coordinates":[[[-1.559,55.012],[-1.594,54.998],[-1.616,54.995],[-1.68,55.01],[-1.63,55.034],[-1.579,55.028],[-1.559,55.012]]]}},{"type":"Feature","properties":{"name":"Newcastle-under-Lyme","code":"E14001380"},"geometry":{"type":"Polygon","coordinates":[[[-2.282,53.08],[-2.208,53.034],[-2.212,52.988],[-2.286,52.993],[-2.324,52.978],[-2.371,52.977],[-2.383,53.008],[-2.382,53.046],[-2.348,53.056],[-2.294,53.078],[-2.282,53.08]]]}},{"type":"Feature","properties":{"name":"Normanton and Hemsworth","code":"E14001383"},"geometry":{"type":"Polygon","coordinates":[[[-1.255,53.649],[-1.248,53.616],[-1.253,53.597],[-1.308,53.575],[-1.377,53.606],[-1.448,53.613],[-1.497,53.597],[-1.5,53.624],[-1.469,53.662],[-1.46,53.683],[-1.449,53.703],[-1.352,53.704],[-1.276,53.649],[-1.255,53.649]]]}},{"type":"Feature","properties":{"name":"North East Derbyshire","code":"E14001391"},"geometry":{"type":"Polygon","coordinates":[[[-1.325,53.329],[-1.289,53.326],[-1.322,53.309],[-1.307,53.275],[-1.346,53.261],[-1.388,53.267],[-1.423,53.283],[-1.464,53.268],[-1.482,53.246],[-1.482,53.226],[-1.441,53.221],[-1.401,53.214],[-1.383,53.2],[-1.359,53.184],[-1.393,53.158],[-1.424,53.151],[-1.458,53.137],[-1.509,53.146],[-1.548,53.2],[-1.569,53.223],[-1.585,53.263],[-1.599,53.311],[-1.562,53.316],[-1.531,53.311],[-1.458,53.32],[-1.451,53.331],[-1.39,53.319],[-1.328,53.329],[-1.325,53.329]]]}},{"type":"Feature","properties":{"name":"North Northumberland","code":"E14001397"},"geometry":{"type":"MultiPolygon","coordinates":[[[[-1.655,55.617]]],[[[-1.801,55.689],[-1.779,55.683],[-1.795,55.668],[-1.842,55.679],[-1.813,55.685],[-1.801,55.689]]],[[[-2.031,55.804],[-2.002,55.787],[-1.987,55.766],[-2.01,55.77],[-2.029,55.771],[-2.046,55.758],[-2.025,55.771],[-2.013,55.771],[-1.983,55.751],[-1.939,55.722],[-1.886,55.684],[-1.849,55.653],[-1.839,55.642],[-1.795,55.658],[-1.765,55.626],[-1.742,55.619],[-1.692,55.606],[-1.639,55.578],[-1.628,55.554],[-1.626,55.528],[-1.619,55.515],[-1.614,55.505],[-1.607,55.495],[-1.593,55.473],[-1.587,55.434],[-1.593,55.403],[-1.618,55.39],[-1.608,55.384],[-1.598,55.36],[-1.571,55.34],[-1.594,55.343],[-1.574,55.336],[-1.558,55.307],[-1.571,55.275],[-1.527,55.216],[-1.563,55.207],[-1.612,55.193],[-1.657,55.166],[-1.706,55.15],[-1.731,55.176],[-1.761,55.22],[-1.723,55.246],[-1.705,55.26],[-1.656,55.282],[-1.691,55.302],[-1.767,55.291],[-1.807,55.265],[-1.854,55.264],[-1.924,55.248],[-1.955,55.214],[-2.036,55.19],[-2.091,55.181],[-2.133,55.196],[-2.16,55.204],[-2.124,55.233],[-2.133,55.254],[-2.164,55.292],[-2.25,55.333],[-2.329,55.368],[-2.336,55.393],[-2.313,55.407],[-2.271,55.43],[-2.195,55.445],[-2.206,55.482],[-2.228,55.528],[-2.289,55.58],[-2.307,55.611],[-2.336,55.632],[-2.289,55.643],[-2.248,55.652],[-2.184,55.702],[-2.15,55.735],[-2.108,55.76],[-2.053,55.803],[-2.031,55.804]]]]}},{"type":"Feature","properties":{"name":"Oldham East and Saddleworth","code":"E14001415"},"geometry":{"type":"Polygon","coordinates":[[[-2.009,53.617],[-1.913,53.552],[-1.922,53.51],[-2.019,53.521],[-2.062,53.522],[-2.107,53.54],[-2.094,53.566],[-2.118,53.593],[-2.057,53.597],[-2.009,53.617]]]}},{"type":"Feature","properties":{"name":"Oldham West, Chadderton and Royton","code":"E14001416"},"geometry":{"type":"Polygon","coordinates":[[[-2.092,53.521],[-2.156,53.516],[-2.186,53.529],[-2.157,53.582],[-2.108,53.567],[-2.114,53.547],[-2.092,53.521]]]}},{"type":"Feature","properties":{"name":"Ossett and Denby Dale","code":"E14001418"},"geometry":{"type":"Polygon","coordinates":[[[-1.554,53.703],[-1.497,53.664],[-1.473,53.675],[-1.472,53.644],[-1.512,53.624],[-1.528,53.597],[-1.591,53.607],[-1.6,53.577],[-1.661,53.56],[-1.718,53.576],[-1.733,53.585],[-1.777,53.614],[-1.683,53.628],[-1.629,53.629],[-1.623,53.638],[-1.615,53.678],[-1.598,53.7],[-1.554,53.703]]]}},{"type":"Feature","properties":{"name":"Pendle and Clitheroe","code":"E14001422"},"geometry":{"type":"Polygon","coordinates":[[[-2.046,53.85],[-2.129,53.82],[-2.192,53.823],[-2.24,53.834],[-2.283,53.807],[-2.311,53.813],[-2.357,53.798],[-2.399,53.803],[-2.419,53.823],[-2.414,53.844],[-2.417,53.862],[-2.397,53.887],[-2.352,53.906],[-2.224,53.891],[-2.215,53.942],[-2.176,53.934],[-2.149,53.926],[-2.122,53.917],[-2.081,53.876],[-2.046,53.85]]]}},{"type":"Feature","properties":{"name":"Penistone and Stocksbridge","code":"E14001423"},"geometry":{"type":"Polygon","coordinates":[[[-1.558,53.606],[-1.556,53.578],[-1.528,53.565],[-1.508,53.553],[-1.495,53.529],[-1.443,53.447],[-1.464,53.431],[-1.497,53.433],[-1.533,53.428],[-1.594,53.442],[-1.63,53.445],[-1.678,53.435],[-1.744,53.431],[-1.752,53.465],[-1.801,53.481],[-1.822,53.521],[-1.723,53.56],[-1.661,53.56],[-1.6,53.577],[-1.591,53.607],[-1.558,53.606]]]}},{"type":"Feature","properties":{"name":"Penrith and Solway","code":"E14001424"},"geometry":{"type":"Polygon","coordinates":[[[-3.041,54.946],[-3.005,54.933],[-2.984,54.913],[-2.984,54.884],[-2.955,54.871],[-2.911,54.871],[-2.869,54.865],[-2.818,54.828],[-2.756,54.823],[-2.69,54.819],[-2.658,54.849],[-2.558,54.817],[-2.452,54.832],[-2.373,54.827],[-2.312,54.791],[-2.332,54.732],[-2.374,54.698],[-2.507,54.675],[-2.567,54.666],[-2.64,54.663],[-2.681,54.655],[-2.748,54.651],[-2.857,54.698],[-2.916,54.697],[-2.989,54.728],[-3.064,54.7],[-3.073,54.667],[-3.087,54.613],[-3.034,54.603],[-3.018,54.575],[-3.025,54.541],[-3.051,54.491],[-3.109,54.474],[-3.136,54.471],[-3.184,54.462],[-3.214,54.497],[-3.306,54.53],[-3.366,54.545],[-3.393,54.586],[-3.376,54.62],[-3.348,54.643],[-3.42,54.648],[-3.463,54.66],[-3.503,54.7],[-3.508,54.717],[-3.48,54.732],[-3.433,54.766],[-3.395,54.868],[-3.367,54.891],[-3.358,54.892],[-3.35,54.894],[-3.347,54.891],[-3.333,54.889],[-3.33,54.892],[-3.32,54.887],[-3.302,54.885],[-3.284,54.877],[-3.284,54.865],[-3.278,54.878],[-3.288,54.893],[-3.277,54.886],[-3.263,54.888],[-3.265,54.892],[-3.255,54.901],[-3.249,54.902],[-3.241,54.907],[-3.211,54.904],[-3.249,54.914],[-3.314,54.915],[-3.269,54.937],[-3.204,54.954],[-3.144,54.929],[-3.119,54.925],[-3.097,54.932],[-3.047,54.946],[-3.041,54.946]]]}},{"type":"Feature","properties":{"name":"Pontefract, Castleford and Knottingley","code":"E14001428"},"geometry":{"type":"Polygon","coordinates":[[[-1.255,53.649],[-1.355,53.699],[-1.444,53.702],[-1.462,53.708],[-1.447,53.718],[-1.399,53.719],[-1.314,53.741],[-1.248,53.712],[-1.199,53.701],[-1.247,53.656],[-1.255,53.649]]]}},{"type":"Feature","properties":{"name":"Preston","code":"E14001433"},"geometry":{"type":"Polygon","coordinates":[[[-2.705,53.75],[-2.762,53.756],[-2.79,53.757],[-2.75,53.789],[-2.697,53.784],[-2.673,53.794],[-2.621,53.789],[-2.643,53.766],[-2.679,53.753],[-2.705,53.75]]]}},{"type":"Feature","properties":{"name":"Rawmarsh and Conisbrough","code":"E14001436"},"geometry":{"type":"Polygon","coordinates":[[[-1.312,53.514],[-1.253,53.495],[-1.197,53.498],[-1.158,53.49],[-1.225,53.449],[-1.24,53.435],[-1.263,53.411],[-1.271,53.435],[-1.302,53.462],[-1.333,53.45],[-1.358,53.454],[-1.387,53.46],[-1.419,53.465],[-1.455,53.472],[-1.415,53.493],[-1.312,53.514]]]}},{"type":"Feature","properties":{"name":"Redcar","code":"E14001440"},"geometry":{"type":"Polygon","coordinates":[[[-0.943,54.588],[-0.995,54.576],[-1.048,54.567],[-1.128,54.561],[-1.199,54.544],[-1.194,54.58],[-1.16,54.605],[-1.153,54.63],[-1.142,54.638],[-1.073,54.621],[-1.036,54.606],[-0.96,54.585],[-0.943,54.588]]]}},{"type":"Feature","properties":{"name":"Ribble Valley","code":"E14001443"},"geometry":{"type":"Polygon","coordinates":[[[-2.184,53.952],[-2.223,53.896],[-2.309,53.9],[-2.388,53.893],[-2.419,53.868],[-2.409,53.859],[-2.41,53.829],[-2.466,53.781],[-2.526,53.76],[-2.587,53.743],[-2.63,53.717],[-2.675,53.721],[-2.701,53.746],[-2.679,53.753],[-2.643,53.766],[-2.621,53.789],[-2.673,53.794],[-2.697,53.784],[-2.75,53.789],[-2.803,53.826],[-2.782,53.833],[-2.747,53.851],[-2.706,53.869],[-2.63,53.893],[-2.626,53.939],[-2.589,53.96],[-2.581,54.0],[-2.527,54.026],[-2.459,54.04],[-2.357,54.019],[-2.352,54.011],[-2.299,53.977],[-2.226,53.967],[-2.196,53.97],[-2.184,53.952]]]}},{"type":"Feature","properties":{"name":"Richmond and Northallerton","code":"E14001444"},"geometry":{"type":"Polygon","coordinates":[[[-1.697,54.536],[-1.633,54.519],[-1.603,54.511],[-1.583,54.497],[-1.52,54.471],[-1.505,54.482],[-1.472,54.455],[-1.464,54.474],[-1.474,54.496],[-1.433,54.48],[-1.395,54.486],[-1.373,54.472],[-1.318,54.472],[-1.287,54.483],[-1.257,54.501],[-1.204,54.507],[-1.112,54.504],[-1.004,54.475],[-1.048,54.452],[-1.059,54.413],[-1.067,54.376],[-1.122,54.331],[-1.158,54.349],[-1.225,54.378],[-1.325,54.339],[-1.391,54.327],[-1.43,54.315],[-1.415,54.271],[-1.474,54.272],[-1.485,54.282],[-1.512,54.301],[-1.553,54.312],[-1.58,54.33],[-1.642,54.323],[-1.647,54.301],[-1.702,54.279],[-1.705,54.261],[-1.756,54.239],[-1.886,54.21],[-2.004,54.173],[-2.046,54.182],[-2.1,54.232],[-2.151,54.233],[-2.242,54.248],[-2.319,54.257],[-2.32,54.299],[-2.31,54.324],[-2.361,54.355],[-2.292,54.391],[-2.293,54.439],[-2.236,54.448],[-2.159,54.455],[-2.043,54.484],[-1.97,54.452],[-1.859,54.482],[-1.822,54.495],[-1.78,54.532],[-1.721,54.542],[-1.697,54.536]]]}},{"type":"Feature","properties":{"name":"Rochdale","code":"E14001446"},"geometry":{"type":"Polygon","coordinates":[[[-2.027,53.624],[-2.111,53.6],[-2.157,53.582],[-2.162,53.619],[-2.164,53.655],[-2.097,53.673],[-2.062,53.683],[-2.037,53.662],[-2.027,53.624]]]}},{"type":"Feature","properties":{"name":"Rossendale and Darwen","code":"E14001450"},"geometry":{"type":"Polygon","coordinates":[[[-2.173,53.723],[-2.164,53.655],[-2.19,53.648],[-2.233,53.669],[-2.258,53.616],[-2.295,53.64],[-2.353,53.658],[-2.372,53.642],[-2.422,53.624],[-2.448,53.632],[-2.511,53.627],[-2.526,53.675],[-2.543,53.71],[-2.5,53.72],[-2.458,53.725],[-2.418,53.711],[-2.32,53.691],[-2.306,53.693],[-2.311,53.737],[-2.263,53.746],[-2.233,53.738],[-2.173,53.723]]]}},{"type":"Feature","properties":{"name":"Rother Valley","code":"E14001451"},"geometry":{"type":"Polygon","coordinates":[[[-1.116,53.407],[-1.131,53.376],[-1.151,53.354],[-1.146,53.341],[-1.203,53.304],[-1.274,53.311],[-1.299,53.333],[-1.331,53.351],[-1.34,53.379],[-1.334,53.407],[-1.309,53.42],[-1.254,53.419],[-1.197,53.432],[-1.146,53.426],[-1.116,53.407]]]}},{"type":"Feature","properties":{"name":"Rotherham","code":"E14001452"},"geometry":{"type":"Polygon","coordinates":[[[-1.269,53.423],[-1.34,53.415],[-1.331,53.374],[-1.38,53.381],[-1.38,53.424],[-1.448,53.462],[-1.405,53.463],[-1.372,53.46],[-1.354,53.45],[-1.319,53.445],[-1.296,53.472],[-1.274,53.43],[-1.269,53.423]]]}},{"type":"Feature","properties":{"name":"Runcorn and Helsby","code":"E14001455"},"geometry":{"type":"Polygon","coordinates":[[[-2.595,53.322],[-2.624,53.309],[-2.701,53.306],[-2.666,53.282],[-2.65,53.267],[-2.691,53.243],[-2.716,53.216],[-2.806,53.204],[-2.866,53.225],[-2.891,53.253],[-2.887,53.293],[-2.848,53.302],[-2.789,53.295],[-2.76,53.336],[-2.736,53.345],[-2.675,53.354],[-2.607,53.343],[-2.595,53.322]]]}},{"type":"Feature","properties":{"name":"Salford","code":"E14001459"},"geometry":{"type":"Polygon","coordinates":[[[-2.338,53.534],[-2.29,53.505],[-2.261,53.506],[-2.255,53.499],[-2.318,53.479],[-2.342,53.496],[-2.338,53.515],[-2.354,53.535],[-2.338,53.534]]]}},{"type":"Feature","properties":{"name":"Scarborough and Whitby","code":"E14001461"},"geometry":{"type":"Polygon","coordinates":[[[-0.303,54.227],[-0.408,54.219],[-0.498,54.206],[-0.566,54.202],[-0.612,54.213],[-0.605,54.298],[-0.59,54.329],[-0.661,54.367],[-0.711,54.357],[-0.757,54.363],[-0.824,54.383],[-0.95,54.409],[-1.065,54.421],[-1.034,54.459],[-1.016,54.477],[-0.968,54.497],[-0.844,54.491],[-0.8,54.551],[-0.765,54.549],[-0.747,54.534],[-0.731,54.528],[-0.694,54.52],[-0.673,54.513],[-0.613,54.494],[-0.613,54.493],[-0.609,54.491],[-0.585,54.484],[-0.522,54.442],[-0.503,54.407],[-0.477,54.4],[-0.462,54.386],[-0.433,54.34],[-0.419,54.32],[-0.412,54.308],[-0.409,54.303],[-0.406,54.292],[-0.395,54.288],[-0.386,54.289],[-0.397,54.274],[-0.364,54.245],[-0.313,54.229],[-0.303,54.227]]]}},{"type":"Feature","properties":{"name":"Scunthorpe","code":"E14001462"},"geometry":{"type":"MultiPolygon","coordinates":[[[[-0.525,53.685],[-0.559,53.689],[-0.525,53.685]]],[[[-0.584,53.696],[-0.537,53.657],[-0.643,53.622],[-0.6,53.592],[-0.576,53.562],[-0.514,53.551],[-0.491,53.546],[-0.408,53.532],[-0.481,53.496],[-0.599,53.456],[-0.63,53.486],[-0.687,53.516],[-0.738,53.546],[-0.731,53.606],[-0.713,53.626],[-0.696,53.69],[-0.584,53.696]]]]}},{"type":"Feature","properties":{"name":"Sefton Central","code":"E14001463"},"geometry":{"type":"Polygon","coordinates":[[[-3.014,53.611],[-3.023,53.57],[-3.041,53.542],[-2.964,53.519],[-2.936,53.538],[-2.898,53.501],[-2.919,53.478],[-2.997,53.494],[-3.034,53.482],[-3.064,53.511],[-3.071,53.522],[-3.101,53.569],[-3.037,53.609],[-3.014,53.611]]]}},{"type":"Feature","properties":{"name":"Selby","code":"E14001464"},"geometry":{"type":"Polygon","coordinates":[[[-0.923,53.881],[-0.942,53.855],[-0.934,53.802],[-0.95,53.754],[-0.911,53.733],[-0.961,53.708],[-0.981,53.705],[-1.039,53.694],[-1.075,53.704],[-1.091,53.669],[-1.049,53.656],[-1.129,53.643],[-1.21,53.643],[-1.233,53.621],[-1.247,53.656],[-1.199,53.701],[-1.248,53.712],[-1.314,53.741],[-1.399,53.719],[-1.416,53.735],[-1.385,53.747],[-1.374,53.78],[-1.314,53.81],[-1.258,53.804],[-1.229,53.806],[-1.183,53.799],[-1.195,53.842],[-1.173,53.856],[-1.143,53.84],[-1.127,53.865],[-1.065,53.875],[-0.948,53.885],[-0.923,53.881]]]}},{"type":"Feature","properties":{"name":"Sheffield Brightside and Hillsborough","code":"E14001466"},"geometry":{"type":"Polygon","coordinates":[[[-1.433,53.438],[-1.481,53.39],[-1.511,53.417],[-1.497,53.433],[-1.464,53.431],[-1.433,53.438]]]}},{"type":"Feature","properties":{"name":"Sheffield Central","code":"E14001467"},"geometry":{"type":"Polygon","coordinates":[[[-1.46,53.388],[-1.492,53.355],[-1.5,53.381],[-1.512,53.4],[-1.46,53.388]]]}},{"type":"Feature","properties":{"name":"Sheffield Hallam","code":"E14001468"},"geometry":{"type":"Polygon","coordinates":[[[-1.519,53.426],[-1.512,53.4],[-1.5,53.381],[-1.492,53.355],[-1.498,53.323],[-1.539,53.305],[-1.583,53.316],[-1.609,53.323],[-1.591,53.346],[-1.668,53.393],[-1.717,53.419],[-1.638,53.443],[-1.609,53.443],[-1.563,53.426],[-1.519,53.426]]]}},{"type":"Feature","properties":{"name":"Sheffield Heeley","code":"E14001469"},"geometry":{"type":"Polygon","coordinates":[[[-1.442,53.337],[-1.454,53.324],[-1.498,53.323],[-1.463,53.369],[-1.405,53.372],[-1.442,53.337]]]}},{"type":"Feature","properties":{"name":"Sheffield South East","code":"E14001470"},"geometry":{"type":"Polygon","coordinates":[[[-1.363,53.368],[-1.338,53.316],[-1.389,53.336],[-1.396,53.355],[-1.437,53.384],[-1.397,53.425],[-1.391,53.383],[-1.363,53.368]]]}},{"type":"Feature","properties":{"name":"Sherwood Forest","code":"E14001471"},"geometry":{"type":"Polygon","coordinates":[[[-1.007,52.985],[-1.039,53.0],[-1.049,53.033],[-1.132,53.023],[-1.195,53.015],[-1.229,53.023],[-1.231,53.062],[-1.187,53.099],[-1.136,53.119],[-1.126,53.157],[-1.104,53.209],[-1.103,53.236],[-1.007,53.236],[-0.94,53.215],[-0.971,53.192],[-0.967,53.159],[-0.985,53.133],[-1.0,53.109],[-1.03,53.098],[-1.046,53.087],[-0.987,53.046],[-0.938,53.014],[-1.007,52.985]]]}},{"type":"Feature","properties":{"name":"Shipley","code":"E14001472"},"geometry":{"type":"Polygon","coordinates":[[[-1.727,53.91],[-1.756,53.885],[-1.795,53.895],[-1.761,53.864],[-1.71,53.863],[-1.747,53.831],[-1.775,53.829],[-1.809,53.825],[-1.852,53.811],[-1.877,53.802],[-1.927,53.787],[-1.937,53.824],[-1.881,53.853],[-1.849,53.867],[-1.83,53.889],[-1.772,53.921],[-1.727,53.91]]]}},{"type":"Feature","properties":{"name":"Skipton and Ripon","code":"E14001475"},"geometry":{"type":"Polygon","coordinates":[[[-1.367,54.168],[-1.406,54.134],[-1.478,54.124],[-1.489,54.11],[-1.495,54.106],[-1.521,54.076],[-1.535,54.047],[-1.526,54.032],[-1.565,54.032],[-1.587,54.032],[-1.617,54.018],[-1.623,53.995],[-1.576,53.976],[-1.552,53.957],[-1.555,53.93],[-1.561,53.918],[-1.569,53.911],[-1.621,53.903],[-1.689,53.913],[-1.718,53.909],[-1.756,53.921],[-1.798,53.93],[-1.83,53.94],[-1.862,53.941],[-1.906,53.958],[-1.966,53.952],[-1.966,53.928],[-1.979,53.901],[-2.013,53.87],[-2.081,53.87],[-2.107,53.908],[-2.14,53.928],[-2.164,53.935],[-2.179,53.946],[-2.214,53.965],[-2.23,53.982],[-2.34,53.989],[-2.34,54.009],[-2.426,54.038],[-2.471,54.077],[-2.524,54.102],[-2.563,54.123],[-2.544,54.158],[-2.461,54.227],[-2.397,54.239],[-2.338,54.238],[-2.283,54.239],[-2.172,54.228],[-2.129,54.226],[-2.059,54.197],[-2.023,54.177],[-1.924,54.2],[-1.816,54.241],[-1.717,54.257],[-1.675,54.247],[-1.649,54.25],[-1.621,54.219],[-1.602,54.191],[-1.582,54.205],[-1.501,54.204],[-1.443,54.216],[-1.412,54.181],[-1.379,54.169],[-1.367,54.168]]]}},{"type":"Feature","properties":{"name":"Sleaford and North Hykeham","code":"E14001476"},"geometry":{"type":"Polygon","coordinates":[[[-0.495,53.225],[-0.337,53.208],[-0.276,53.174],[-0.219,53.096],[-0.225,53.03],[-0.336,52.99],[-0.455,52.981],[-0.5,52.986],[-0.523,53.05],[-0.637,53.055],[-0.698,53.053],[-0.695,53.066],[-0.715,53.087],[-0.731,53.124],[-0.718,53.177],[-0.715,53.208],[-0.654,53.237],[-0.614,53.203],[-0.56,53.161],[-0.495,53.167],[-0.51,53.193],[-0.527,53.219],[-0.495,53.225]]]}},{"type":"Feature","properties":{"name":"South Ribble","code":"E14001491"},"geometry":{"type":"Polygon","coordinates":[[[-2.721,53.756],[-2.695,53.739],[-2.658,53.718],[-2.659,53.681],[-2.699,53.666],[-2.658,53.641],[-2.686,53.612],[-2.71,53.618],[-2.781,53.623],[-2.806,53.641],[-2.816,53.673],[-2.834,53.697],[-2.827,53.716],[-2.836,53.725],[-2.82,53.744],[-2.757,53.756],[-2.721,53.756]]]}},{"type":"Feature","properties":{"name":"South Shields","code":"E14001492"},"geometry":{"type":"Polygon","coordinates":[[[-1.424,55.008],[-1.393,54.988],[-1.377,54.978],[-1.364,54.944],[-1.419,54.93],[-1.463,54.959],[-1.452,54.985],[-1.429,55.007],[-1.424,55.008]]]}},{"type":"Feature","properties":{"name":"Southport","code":"E14001504"},"geometry":{"type":"Polygon","coordinates":[[[-2.838,53.724],[-2.826,53.715],[-2.826,53.688],[-2.823,53.668],[-2.808,53.628],[-2.931,53.647],[-2.982,53.622],[-3.026,53.617],[-3.031,53.648],[-3.011,53.667],[-2.988,53.685],[-2.98,53.689],[-2.971,53.692],[-2.962,53.694],[-2.942,53.697],[-2.955,53.704],[-2.94,53.711],[-2.932,53.719],[-2.916,53.713],[-2.911,53.717],[-2.911,53.723],[-2.907,53.728],[-2.895,53.73],[-2.884,53.731],[-2.838,53.724]]]}},{"type":"Feature","properties":{"name":"Spen Valley","code":"E14001506"},"geometry":{"type":"Polygon","coordinates":[[[-1.682,53.756],[-1.638,53.727],[-1.654,53.717],[-1.67,53.686],[-1.678,53.651],[-1.725,53.652],[-1.727,53.683],[-1.755,53.721],[-1.747,53.747],[-1.682,53.756]]]}},{"type":"Feature","properties":{"name":"St Helens North","code":"E14001509"},"geometry":{"type":"Polygon","coordinates":[[[-2.73,53.521],[-2.699,53.502],[-2.612,53.481],[-2.597,53.457],[-2.599,53.45],[-2.677,53.453],[-2.717,53.447],[-2.741,53.462],[-2.791,53.471],[-2.82,53.497],[-2.769,53.514],[-2.73,53.521]]]}},{"type":"Feature","properties":{"name":"St Helens South and Whiston","code":"E14001510"},"geometry":{"type":"Polygon","coordinates":[[[-2.682,53.439],[-2.667,53.416],[-2.71,53.389],[-2.802,53.413],[-2.805,53.441],[-2.791,53.471],[-2.741,53.462],[-2.717,53.447],[-2.682,53.439]]]}},{"type":"Feature","properties":{"name":"Staffordshire Moorlands","code":"E14001514"},"geometry":{"type":"Polygon","coordinates":[[[-1.899,53.2],[-1.813,53.154],[-1.787,53.109],[-1.789,53.081],[-1.779,53.045],[-1.788,53.03],[-1.813,53.029],[-1.872,53.02],[-1.869,52.992],[-1.91,52.963],[-1.95,52.981],[-2.003,52.959],[-2.032,52.985],[-2.061,52.982],[-2.095,52.999],[-2.119,53.026],[-2.117,53.048],[-2.148,53.07],[-2.189,53.101],[-2.156,53.16],[-2.129,53.175],[-2.087,53.17],[-2.046,53.193],[-1.962,53.226],[-1.899,53.2]]]}},{"type":"Feature","properties":{"name":"Stalybridge and Hyde","code":"E14001515"},"geometry":{"type":"Polygon","coordinates":[[[-1.963,53.51],[-1.981,53.463],[-2.008,53.442],[-2.039,53.427],[-2.093,53.438],[-2.08,53.465],[-2.055,53.511],[-2.055,53.531],[-1.997,53.522],[-1.963,53.51]]]}},{"type":"Feature","properties":{"name":"Stockport","code":"E14001517"},"geometry":{"type":"Polygon","coordinates":[[[-2.131,53.439],[-2.146,53.393],[-2.184,53.391],[-2.208,53.42],[-2.173,53.448],[-2.143,53.445],[-2.131,53.439]]]}},{"type":"Feature","properties":{"name":"Stockton North","code":"E14001518"},"geometry":{"type":"Polygon","coordinates":[[[-1.298,54.636],[-1.257,54.623],[-1.224,54.624],[-1.213,54.621],[-1.167,54.62],[-1.204,54.583],[-1.253,54.592],[-1.31,54.565],[-1.314,54.534],[-1.329,54.555],[-1.337,54.581],[-1.41,54.618],[-1.396,54.631],[-1.357,54.638],[-1.307,54.637],[-1.298,54.636]]]}},{"type":"Feature","properties":{"name":"Stockton West","code":"E14001519"},"geometry":{"type":"Polygon","coordinates":[[[-1.31,54.546],[-1.264,54.513],[-1.253,54.498],[-1.292,54.483],[-1.344,54.464],[-1.375,54.482],[-1.399,54.493],[-1.427,54.485],[-1.462,54.496],[-1.454,54.466],[-1.468,54.462],[-1.511,54.475],[-1.533,54.469],[-1.579,54.505],[-1.544,54.512],[-1.502,54.521],[-1.505,54.552],[-1.519,54.564],[-1.506,54.591],[-1.456,54.599],[-1.451,54.611],[-1.397,54.605],[-1.334,54.576],[-1.34,54.543],[-1.311,54.537],[-1.31,54.546]]]}},{"type":"Feature","properties":{"name":"Stoke-on-Trent Central","code":"E14001520"},"geometry":{"type":"Polygon","coordinates":[[[-2.129,53.044],[-2.104,53.011],[-2.132,52.989],[-2.212,53.007],[-2.188,53.033],[-2.149,53.039],[-2.129,53.044]]]}},{"type":"Feature","properties":{"name":"Stoke-on-Trent North","code":"E14001521"},"geometry":{"type":"Polygon","coordinates":[[[-2.129,53.044],[-2.173,53.039],[-2.228,53.064],[-2.277,53.086],[-2.223,53.104],[-2.179,53.092],[-2.139,53.065],[-2.129,53.044]]]}},{"type":"Feature","properties":{"name":"Stretford and Urmston","code":"E14001528"},"geometry":{"type":"Polygon","coordinates":[[[-2.265,53.473],[-2.293,53.444],[-2.316,53.435],[-2.362,53.418],[-2.446,53.414],[-2.393,53.46],[-2.265,53.473]]]}},{"type":"Feature","properties":{"name":"Sunderland Central","code":"E14001531"},"geometry":{"type":"Polygon","coordinates":[[[-1.357,54.914],[-1.359,54.913],[-1.351,54.905],[-1.383,54.861],[-1.38,54.877],[-1.428,54.902],[-1.407,54.926],[-1.364,54.944],[-1.365,54.933],[-1.363,54.923],[-1.367,54.92],[-1.378,54.91],[-1.357,54.914]]]}},{"type":"Feature","properties":{"name":"Tatton","code":"E14001539"},"geometry":{"type":"Polygon","coordinates":[[[-2.314,53.357],[-2.241,53.36],[-2.188,53.349],[-2.21,53.303],[-2.22,53.27],[-2.275,53.26],[-2.329,53.253],[-2.364,53.224],[-2.401,53.222],[-2.395,53.206],[-2.369,53.183],[-2.407,53.174],[-2.451,53.199],[-2.474,53.213],[-2.464,53.256],[-2.521,53.268],[-2.564,53.263],[-2.617,53.288],[-2.666,53.282],[-2.701,53.306],[-2.624,53.309],[-2.595,53.322],[-2.539,53.336],[-2.508,53.376],[-2.459,53.393],[-2.401,53.375],[-2.34,53.367],[-2.314,53.357]]]}},{"type":"Feature","properties":{"name":"Thirsk and Malton","code":"E14001544"},"geometry":{"type":"Polygon","coordinates":[[[-0.303,54.227],[-0.285,54.203],[-0.272,54.184],[-0.222,54.138],[-0.269,54.138],[-0.324,54.15],[-0.391,54.177],[-0.433,54.164],[-0.466,54.108],[-0.542,54.092],[-0.66,54.063],[-0.687,54.031],[-0.711,54.011],[-0.82,54.021],[-0.889,54.009],[-0.944,53.989],[-0.979,53.996],[-0.983,54.01],[-0.974,54.029],[-1.014,54.049],[-1.042,54.078],[-1.044,54.107],[-1.081,54.172],[-1.169,54.202],[-1.197,54.226],[-1.235,54.228],[-1.267,54.211],[-1.311,54.197],[-1.271,54.172],[-1.277,54.146],[-1.334,54.159],[-1.348,54.155],[-1.367,54.168],[-1.394,54.181],[-1.446,54.214],[-1.495,54.203],[-1.568,54.2],[-1.596,54.19],[-1.631,54.198],[-1.636,54.24],[-1.67,54.248],[-1.702,54.279],[-1.647,54.301],[-1.642,54.323],[-1.58,54.33],[-1.553,54.312],[-1.512,54.301],[-1.485,54.282],[-1.474,54.272],[-1.415,54.271],[-1.43,54.315],[-1.391,54.327],[-1.325,54.339],[-1.225,54.378],[-1.158,54.349],[-1.122,54.331],[-1.067,54.376],[-1.059,54.413],[-0.927,54.401],[-0.809,54.36],[-0.753,54.369],[-0.703,54.365],[-0.633,54.376],[-0.586,54.321],[-0.613,54.279],[-0.618,54.206],[-0.55,54.193],[-0.494,54.203],[-0.38,54.211],[-0.303,54.227]]]}},{"type":"Feature","properties":{"name":"Tynemouth","code":"E14001557"},"geometry":{"type":"Polygon","coordinates":[[[-1.449,54.993],[-1.482,54.988],[-1.508,55.028],[-1.508,55.048],[-1.471,55.074],[-1.456,55.071],[-1.45,55.054],[-1.43,55.035],[-1.43,55.031],[-1.404,55.015],[-1.417,55.014],[-1.449,54.993]]]}},{"type":"Feature","properties":{"name":"Wakefield and Rothwell","code":"E14001560"},"geometry":{"type":"Polygon","coordinates":[[[-1.42,53.745],[-1.434,53.722],[-1.462,53.715],[-1.449,53.689],[-1.486,53.673],[-1.514,53.664],[-1.547,53.71],[-1.481,53.728],[-1.491,53.744],[-1.449,53.764],[-1.42,53.745]]]}},{"type":"Feature","properties":{"name":"Wallasey","code":"E14001561"},"geometry":{"type":"Polygon","coordinates":[[[-3.013,53.401],[-3.069,53.415],[-3.11,53.387],[-3.139,53.41],[-3.06,53.439],[-3.024,53.419],[-3.013,53.401]]]}},{"type":"Feature","properties":{"name":"Warrington North","code":"E14001564"},"geometry":{"type":"Polygon","coordinates":[[[-2.449,53.416],[-2.535,53.384],[-2.577,53.389],[-2.598,53.414],[-2.629,53.409],[-2.672,53.422],[-2.677,53.453],[-2.599,53.45],[-2.553,53.468],[-2.478,53.443],[-2.449,53.416]]]}},{"type":"Feature","properties":{"name":"Warrington South","code":"E14001565"},"geometry":{"type":"Polygon","coordinates":[[[-2.51,53.389],[-2.518,53.342],[-2.586,53.329],[-2.607,53.343],[-2.675,53.354],[-2.657,53.374],[-2.646,53.374],[-2.698,53.379],[-2.629,53.409],[-2.598,53.414],[-2.577,53.389],[-2.535,53.384],[-2.51,53.389]]]}},{"type":"Feature","properties":{"name":"Washington and Gateshead South","code":"E14001567"},"geometry":{"type":"Polygon","coordinates":[[[-1.44,54.912],[-1.484,54.894],[-1.542,54.873],[-1.594,54.902],[-1.651,54.879],[-1.676,54.898],[-1.652,54.93],[-1.605,54.922],[-1.557,54.93],[-1.45,54.934],[-1.428,54.916],[-1.44,54.912]]]}},{"type":"Feature","properties":{"name":"West Lancashire","code":"E14001577"},"geometry":{"type":"Polygon","coordinates":[[[-2.808,53.628],[-2.779,53.62],[-2.696,53.623],[-2.696,53.605],[-2.711,53.565],[-2.73,53.521],[-2.817,53.512],[-2.844,53.484],[-2.888,53.504],[-2.955,53.546],[-2.973,53.515],[-3.045,53.541],[-3.022,53.574],[-2.998,53.627],[-2.942,53.642],[-2.848,53.625],[-2.808,53.628]]]}},{"type":"Feature","properties":{"name":"Westmorland and Lonsdale","code":"E14001580"},"geometry":{"type":"MultiPolygon","coordinates":[[[[-2.987,54.148],[-3.009,54.141],[-3.002,54.15],[-2.987,54.148]]],[[[-3.061,54.179]]],[[[-2.968,54.718],[-2.885,54.702],[-2.829,54.688],[-2.73,54.657],[-2.685,54.665],[-2.614,54.65],[-2.551,54.67],[-2.431,54.703],[-2.352,54.686],[-2.303,54.667],[-2.305,54.596],[-2.198,54.533],[-2.162,54.504],[-2.178,54.462],[-2.265,54.443],[-2.308,54.42],[-2.326,54.368],[-2.406,54.37],[-2.484,54.377],[-2.534,54.381],[-2.583,54.388],[-2.573,54.351],[-2.572,54.3],[-2.585,54.274],[-2.647,54.273],[-2.678,54.273],[-2.701,54.3],[-2.76,54.268],[-2.764,54.248],[-2.749,54.237],[-2.79,54.231],[-2.802,54.249],[-2.815,54.245],[-2.803,54.225],[-2.842,54.206],[-2.878,54.202],[-2.889,54.199],[-2.932,54.151],[-2.939,54.157],[-3.0,54.153],[-3.0,54.168],[-2.996,54.176],[-3.004,54.176],[-3.01,54.177],[-3.022,54.186],[-3.039,54.197],[-3.015,54.206],[-3.023,54.215],[-3.034,54.229],[-3.029,54.242],[-3.038,54.24],[-3.062,54.249],[-3.098,54.276],[-3.131,54.261],[-3.132,54.329],[-3.121,54.39],[-3.136,54.422],[-3.167,54.454],[-3.119,54.46],[-3.088,54.484],[-3.014,54.501],[-3.02,54.559],[-3.037,54.581],[-3.044,54.614],[-3.09,54.622],[-3.07,54.685],[-2.996,54.695],[-2.968,54.718]]]]}},{"type":"Feature","properties":{"name":"Wetherby and Easingwold","code":"E14001582"},"geometry":{"type":"Polygon","coordinates":[[[-1.06,54.057],[-1.096,54.04],[-1.141,54.03],[-1.149,54.003],[-1.189,54.002],[-1.2,53.989],[-1.204,53.942],[-1.171,53.909],[-1.125,53.883],[-1.134,53.845],[-1.157,53.851],[-1.197,53.854],[-1.162,53.815],[-1.217,53.805],[-1.243,53.809],[-1.308,53.814],[-1.357,53.809],[-1.403,53.809],[-1.432,53.826],[-1.461,53.84],[-1.561,53.889],[-1.561,53.918],[-1.555,53.93],[-1.534,53.952],[-1.507,53.977],[-1.457,53.991],[-1.409,53.984],[-1.38,53.996],[-1.351,54.025],[-1.383,54.037],[-1.432,54.073],[-1.521,54.076],[-1.495,54.106],[-1.489,54.11],[-1.478,54.124],[-1.406,54.134],[-1.367,54.168],[-1.348,54.155],[-1.334,54.159],[-1.277,54.146],[-1.271,54.172],[-1.311,54.197],[-1.267,54.211],[-1.235,54.228],[-1.197,54.226],[-1.169,54.202],[-1.081,54.172],[-1.044,54.107],[-1.042,54.078],[-1.06,54.057]]]}},{"type":"Feature","properties":{"name":"Whitehaven and Workington","code":"E14001583"},"geometry":{"type":"Polygon","coordinates":[[[-3.197,54.466],[-3.246,54.441],[-3.346,54.384],[-3.405,54.362],[-3.423,54.36],[-3.435,54.343],[-3.501,54.407],[-3.593,54.482],[-3.637,54.51],[-3.609,54.53],[-3.599,54.551],[-3.592,54.552],[-3.584,54.565],[-3.581,54.575],[-3.566,54.612],[-3.578,54.647],[-3.564,54.648],[-3.533,54.682],[-3.503,54.7],[-3.463,54.66],[-3.42,54.648],[-3.348,54.643],[-3.376,54.62],[-3.393,54.586],[-3.366,54.545],[-3.306,54.53],[-3.214,54.497],[-3.197,54.466]]]}},{"type":"Feature","properties":{"name":"Widnes and Halewood","code":"E14001584"},"geometry":{"type":"Polygon","coordinates":[[[-2.691,53.385],[-2.706,53.361],[-2.733,53.348],[-2.759,53.35],[-2.778,53.333],[-2.826,53.332],[-2.853,53.364],[-2.837,53.4],[-2.818,53.415],[-2.787,53.401],[-2.691,53.385]]]}},{"type":"Feature","properties":{"name":"Wigan","code":"E14001585"},"geometry":{"type":"Polygon","coordinates":[[[-2.626,53.594],[-2.579,53.578],[-2.561,53.553],[-2.606,53.535],[-2.637,53.535],[-2.697,53.543],[-2.693,53.589],[-2.626,53.594]]]}},{"type":"Feature","properties":{"name":"Wirral West","code":"E14001589"},"geometry":{"type":"Polygon","coordinates":[[[-3.086,53.386],[-3.014,53.341],[-3.013,53.299],[-3.074,53.316],[-3.116,53.303],[-3.122,53.323],[-3.199,53.376],[-3.139,53.41],[-3.11,53.387],[-3.086,53.386]]]}},{"type":"Feature","properties":{"name":"Worsley and Eccles","code":"E14001598"},"geometry":{"type":"Polygon","coordinates":[[[-2.329,53.48],[-2.452,53.427],[-2.492,53.465],[-2.468,53.499],[-2.442,53.513],[-2.415,53.512],[-2.347,53.525],[-2.348,53.503],[-2.327,53.496],[-2.329,53.48]]]}},{"type":"Feature","properties":{"name":"Wythenshawe and Sale East","code":"E14001602"},"geometry":{"type":"Polygon","coordinates":[[[-2.238,53.401],[-2.267,53.351],[-2.286,53.376],[-2.316,53.435],[-2.266,53.421],[-2.246,53.407],[-2.238,53.401]]]}},{"type":"Feature","properties":{"name":"York Central","code":"E14001604"},"geometry":{"type":"Polygon","coordinates":[[[-1.088,53.982],[-1.056,53.976],[-1.044,53.957],[-1.038,53.945],[-1.058,53.942],[-1.088,53.936],[-1.1,53.949],[-1.132,53.94],[-1.142,53.951],[-1.11,53.966],[-1.088,53.982]]]}},{"type":"Feature","properties":{"name":"York Outer","code":"E14001605"},"geometry":{"type":"Polygon","coordinates":[[[-0.925,53.992],[-0.928,53.953],[-0.932,53.909],[-0.921,53.891],[-0.944,53.888],[-1.022,53.888],[-1.105,53.876],[-1.165,53.911],[-1.199,53.925],[-1.217,53.986],[-1.192,54.0],[-1.137,53.991],[-1.145,54.025],[-1.101,54.041],[-1.059,54.048],[-0.982,54.039],[-0.979,54.017],[-0.975,54.005],[-0.967,53.986],[-0.925,53.992]],[[-1.088,53.982],[-1.137,53.969],[-1.139,53.946],[-1.122,53.945],[-1.1,53.931],[-1.081,53.94],[-1.045,53.941],[-1.016,53.951],[-1.043,53.963],[-1.065,53.977],[-1.088,53.982]]]}},{"type":"Feature","properties":{"name":"Midlothian","code":"S14000045"},"geometry":{"type":"Polygon","coordinates":[[[-3.055,55.912],[-2.967,55.903],[-2.938,55.875],[-2.903,55.86],[-2.881,55.847],[-2.86,55.831],[-2.884,55.807],[-2.941,55.795],[-2.982,55.799],[-3.103,55.737],[-3.137,55.72],[-3.163,55.753],[-3.177,55.784],[-3.196,55.802],[-3.274,55.775],[-3.307,55.798],[-3.369,55.824],[-3.254,55.869],[-3.212,55.888],[-3.112,55.899],[-3.085,55.93],[-3.055,55.912]]]}},{"type":"Feature","properties":{"name":"Airdrie and Shotts","code":"S14000063"},"geometry":{"type":"Polygon","coordinates":[[[-3.823,55.896],[-3.796,55.874],[-3.759,55.877],[-3.747,55.866],[-3.742,55.799],[-3.813,55.767],[-3.888,55.786],[-3.937,55.792],[-4.005,55.839],[-4.009,55.866],[-4.019,55.91],[-3.991,55.929],[-3.921,55.931],[-3.877,55.923],[-3.823,55.896]]]}},{"type":"Feature","properties":{"name":"Alloa and Grangemouth","code":"S14000064"},"geometry":{"type":"MultiPolygon","coordinates":[[[[-3.803,56.107],[-3.743,56.065],[-3.73,56.054],[-3.728,56.032],[-3.695,56.035],[-3.677,56.026],[-3.677,56.007],[-3.718,55.997],[-3.778,56.022],[-3.81,56.012],[-3.873,56.013],[-3.881,56.039],[-3.819,56.055],[-3.798,56.065],[-3.82,56.098],[-3.803,56.107]]],[[[-3.814,56.104]]],[[[-3.752,56.212],[-3.697,56.182],[-3.709,56.151],[-3.721,56.138],[-3.768,56.115],[-3.723,56.089],[-3.754,56.081],[-3.797,56.109],[-3.833,56.106],[-3.852,56.121],[-3.858,56.112],[-3.863,56.114],[-3.885,56.129],[-3.854,56.153],[-3.829,56.197],[-3.752,56.212]]]]}},{"type":"Feature","properties":{"name":"Bathgate and Linlithgow","code":"S14000068"},"geometry":{"type":"Polygon","coordinates":[[[-3.425,55.994],[-3.442,55.969],[-3.454,55.945],[-3.552,55.943],[-3.596,55.928],[-3.586,55.895],[-3.571,55.86],[-3.638,55.854],[-3.717,55.844],[-3.711,55.874],[-3.762,55.873],[-3.802,55.875],[-3.782,55.902],[-3.75,55.925],[-3.699,55.939],[-3.653,55.959],[-3.679,55.999],[-3.673,56.012],[-3.608,56.02],[-3.516,56.004],[-3.473,56.0],[-3.425,55.994]]]}},{"type":"Feature","properties":{"name":"Cowdenbeath and Kirkcaldy","code":"S14000071"},"geometry":{"type":"MultiPolygon","coordinates":[[[[-3.303,56.03]]],[[[-3.134,56.032]]],[[[-3.128,56.151],[-3.109,56.142],[-3.124,56.122],[-3.149,56.113],[-3.154,56.113],[-3.16,56.089],[-3.217,56.064],[-3.236,56.054],[-3.284,56.056],[-3.304,56.046],[-3.323,56.035],[-3.357,56.026],[-3.388,56.023],[-3.408,56.014],[-3.388,56.053],[-3.416,56.093],[-3.361,56.126],[-3.321,56.111],[-3.196,56.141],[-3.128,56.151]]]]}},{"type":"Feature","properties":{"name":"Dumfriesshire, Clydesdale and Tweeddale","code":"S14000074"},"geometry":{"type":"Polygon","coordinates":[[[-3.093,55.722],[-3.037,55.71],[-2.985,55.674],[-2.921,55.622],[-2.98,55.628],[-2.985,55.585],[-3.041,55.565],[-3.085,55.583],[-3.16,55.555],[-3.224,55.556],[-3.268,55.518],[-3.319,55.515],[-3.357,55.475],[-3.306,55.435],[-3.279,55.41],[-3.313,55.355],[-3.266,55.361],[-3.217,55.376],[-3.175,55.347],[-3.102,55.352],[-3.063,55.305],[-3.02,55.279],[-2.968,55.284],[-2.898,55.284],[-2.915,55.234],[-2.862,55.223],[-2.9,55.17],[-2.865,55.135],[-2.882,55.093],[-2.922,55.072],[-2.959,55.049],[-3.043,55.047],[-3.04,55.023],[-3.044,54.999],[-3.063,54.985],[-3.076,54.981],[-3.099,54.977],[-3.119,54.974],[-3.207,54.976],[-3.251,54.972],[-3.34,54.974],[-3.42,54.981],[-3.452,54.991],[-3.456,54.989],[-3.478,54.981],[-3.507,54.989],[-3.52,55.002],[-3.557,55.069],[-3.567,55.109],[-3.606,55.095],[-3.651,55.131],[-3.775,55.156],[-3.87,55.204],[-3.967,55.222],[-4.009,55.249],[-4.064,55.269],[-4.112,55.305],[-4.099,55.358],[-4.071,55.415],[-4.016,55.447],[-4.008,55.471],[-4.012,55.505],[-3.965,55.535],[-3.997,55.564],[-3.976,55.578],[-3.898,55.617],[-3.844,55.611],[-3.824,55.628],[-3.74,55.653],[-3.71,55.674],[-3.759,55.679],[-3.719,55.694],[-3.627,55.742],[-3.569,55.74],[-3.529,55.783],[-3.445,55.793],[-3.379,55.82],[-3.325,55.793],[-3.293,55.781],[-3.214,55.784],[-3.186,55.788],[-3.154,55.761],[-3.146,55.72],[-3.093,55.722]]]}},{"type":"Feature","properties":{"name":"Dundee Central","code":"S14000075"},"geometry":{"type":"Polygon","coordinates":[[[-2.968,56.495],[-2.91,56.474],[-2.953,56.464],[-2.975,56.455],[-3.052,56.458],[-3.098,56.479],[-3.051,56.483],[-3.032,56.502],[-2.968,56.495]]]}},{"type":"Feature","properties":{"name":"Dunfermline and Dollar","code":"S14000076"},"geometry":{"type":"Polygon","coordinates":[[[-3.603,56.205],[-3.582,56.184],[-3.626,56.17],[-3.639,56.141],[-3.583,56.151],[-3.499,56.15],[-3.452,56.147],[-3.393,56.114],[-3.402,56.091],[-3.409,56.035],[-3.447,56.022],[-3.463,56.024],[-3.482,56.034],[-3.522,56.042],[-3.572,56.058],[-3.608,56.046],[-3.655,56.052],[-3.738,56.08],[-3.718,56.099],[-3.754,56.124],[-3.715,56.142],[-3.702,56.161],[-3.686,56.196],[-3.603,56.205]]]}},{"type":"Feature","properties":{"name":"Edinburgh East and Musselburgh","code":"S14000078"},"geometry":{"type":"Polygon","coordinates":[[[-3.135,55.968],[-3.079,55.947],[-3.053,55.943],[-3.044,55.921],[-3.092,55.932],[-3.137,55.919],[-3.142,55.928],[-3.175,55.939],[-3.152,55.971],[-3.135,55.968]]]}},{"type":"Feature","properties":{"name":"Edinburgh North and Leith","code":"S14000079"},"geometry":{"type":"Polygon","coordinates":[[[-3.135,55.968],[-3.207,55.95],[-3.222,55.955],[-3.254,55.982],[-3.226,55.987],[-3.218,55.981],[-3.181,55.988],[-3.135,55.968]]]}},{"type":"Feature","properties":{"name":"Edinburgh South","code":"S14000080"},"geometry":{"type":"Polygon","coordinates":[[[-3.117,55.915],[-3.201,55.895],[-3.225,55.925],[-3.205,55.94],[-3.147,55.931],[-3.131,55.922],[-3.117,55.915]]]}},{"type":"Feature","properties":{"name":"Edinburgh South West","code":"S14000081"},"geometry":{"type":"Polygon","coordinates":[[[-3.205,55.94],[-3.225,55.925],[-3.238,55.883],[-3.284,55.866],[-3.395,55.82],[-3.417,55.86],[-3.403,55.887],[-3.333,55.909],[-3.312,55.925],[-3.299,55.936],[-3.207,55.95],[-3.205,55.94]]]}},{"type":"Feature","properties":{"name":"Edinburgh West","code":"S14000082"},"geometry":{"type":"Polygon","coordinates":[[[-3.269,55.979],[-3.214,55.952],[-3.275,55.933],[-3.315,55.927],[-3.337,55.914],[-3.387,55.896],[-3.442,55.905],[-3.418,55.934],[-3.443,55.961],[-3.425,55.991],[-3.407,55.994],[-3.377,55.991],[-3.304,55.981],[-3.269,55.979]]]}},{"type":"Feature","properties":{"name":"Falkirk","code":"S14000083"},"geometry":{"type":"Polygon","coordinates":[[[-3.883,56.047],[-3.881,56.027],[-3.819,56.012],[-3.782,56.027],[-3.729,56.001],[-3.653,55.987],[-3.664,55.961],[-3.703,55.935],[-3.754,55.92],[-3.823,55.896],[-3.877,55.923],[-3.869,55.954],[-3.924,55.965],[-3.965,55.987],[-3.98,56.0],[-4.02,56.028],[-3.897,56.045],[-3.883,56.047]]]}},{"type":"Feature","properties":{"name":"Glenrothes and Mid Fife","code":"S14000090"},"geometry":{"type":"Polygon","coordinates":[[[-3.089,56.234],[-3.081,56.216],[-3.09,56.193],[-3.01,56.194],[-3.005,56.185],[-3.046,56.168],[-3.103,56.136],[-3.117,56.153],[-3.141,56.144],[-3.305,56.114],[-3.356,56.135],[-3.37,56.146],[-3.316,56.166],[-3.261,56.196],[-3.291,56.226],[-3.255,56.235],[-3.154,56.23],[-3.089,56.234]]]}},{"type":"Feature","properties":{"name":"Hamilton and Clyde Valley","code":"S14000092"},"geometry":{"type":"Polygon","coordinates":[[[-4.043,55.797],[-3.974,55.763],[-3.909,55.739],[-3.895,55.719],[-3.853,55.696],[-3.806,55.702],[-3.738,55.681],[-3.703,55.661],[-3.741,55.649],[-3.836,55.625],[-3.839,55.609],[-3.912,55.611],[-3.987,55.573],[-4.041,55.6],[-4.002,55.635],[-3.962,55.677],[-3.965,55.712],[-4.03,55.715],[-4.084,55.726],[-4.141,55.744],[-4.119,55.779],[-4.047,55.797],[-4.043,55.797]]]}},{"type":"Feature","properties":{"name":"Livingston","code":"S14000095"},"geometry":{"type":"Polygon","coordinates":[[[-3.449,55.951],[-3.437,55.913],[-3.388,55.903],[-3.414,55.878],[-3.42,55.846],[-3.426,55.811],[-3.47,55.774],[-3.565,55.79],[-3.68,55.794],[-3.744,55.782],[-3.744,55.839],[-3.667,55.855],[-3.591,55.86],[-3.567,55.886],[-3.569,55.918],[-3.572,55.936],[-3.554,55.955],[-3.449,55.951]]]}},{"type":"Feature","properties":{"name":"Lothian East","code":"S14000096"},"geometry":{"type":"MultiPolygon","coordinates":[[[[-2.784,56.066],[-2.714,56.059],[-2.649,56.054],[-2.613,56.034],[-2.591,56.017],[-2.593,56.011],[-2.599,55.998],[-2.577,56.011],[-2.558,56.001],[-2.512,56.006],[-2.445,55.988],[-2.419,55.971],[-2.403,55.972],[-2.381,55.934],[-2.435,55.904],[-2.495,55.906],[-2.554,55.912],[-2.549,55.882],[-2.555,55.839],[-2.605,55.829],[-2.648,55.834],[-2.687,55.839],[-2.755,55.832],[-2.819,55.83],[-2.855,55.834],[-2.891,55.847],[-2.914,55.857],[-2.948,55.881],[-2.967,55.912],[-3.044,55.921],[-3.043,55.954],[-3.012,55.953],[-2.955,55.973],[-2.9,55.988],[-2.874,56.014],[-2.844,56.015],[-2.832,56.05],[-2.784,56.066]]],[[[-2.639,56.079]]]]}},{"type":"Feature","properties":{"name":"Motherwell, Wishaw and Carluke","code":"S14000099"},"geometry":{"type":"Polygon","coordinates":[[[-3.744,55.782],[-3.68,55.794],[-3.565,55.79],[-3.551,55.766],[-3.604,55.736],[-3.678,55.718],[-3.721,55.691],[-3.831,55.697],[-3.874,55.704],[-3.903,55.728],[-3.93,55.749],[-4.002,55.77],[-4.036,55.796],[-4.005,55.81],[-3.925,55.799],[-3.892,55.795],[-3.878,55.763],[-3.744,55.782]]]}},{"type":"Feature","properties":{"name":"North East Fife","code":"S14000100"},"geometry":{"type":"MultiPolygon","coordinates":[[[[-2.561,56.19]]],[[[-2.562,56.191],[-2.563,56.192],[-2.562,56.191]]],[[[-2.866,56.44],[-2.812,56.394],[-2.86,56.371],[-2.888,56.362],[-2.839,56.353],[-2.781,56.34],[-2.746,56.33],[-2.679,56.321],[-2.648,56.305],[-2.585,56.279],[-2.622,56.259],[-2.673,56.234],[-2.698,56.22],[-2.729,56.211],[-2.805,56.19],[-2.82,56.187],[-2.852,56.189],[-2.873,56.198],[-2.942,56.211],[-2.996,56.192],[-3.011,56.195],[-3.07,56.192],[-3.081,56.212],[-3.067,56.229],[-3.154,56.23],[-3.255,56.235],[-3.329,56.237],[-3.352,56.28],[-3.294,56.289],[-3.267,56.328],[-3.262,56.349],[-3.248,56.353],[-3.185,56.369],[-3.047,56.409],[-2.954,56.434],[-2.87,56.446],[-2.866,56.44]]]]}},{"type":"Feature","properties":{"name":"Perth and Kinross-shire","code":"S14000103"},"geometry":{"type":"Polygon","coordinates":[[[-3.089,56.467],[-3.053,56.458],[-3.194,56.385],[-3.233,56.369],[-3.263,56.366],[-3.339,56.376],[-3.41,56.379],[-3.343,56.374],[-3.298,56.352],[-3.262,56.349],[-3.267,56.328],[-3.294,56.289],[-3.352,56.28],[-3.329,56.237],[-3.265,56.22],[-3.309,56.185],[-3.324,56.172],[-3.396,56.142],[-3.454,56.15],[-3.54,56.146],[-3.581,56.139],[-3.645,56.147],[-3.618,56.168],[-3.585,56.192],[-3.599,56.227],[-3.61,56.264],[-3.611,56.34],[-3.682,56.332],[-3.723,56.316],[-3.802,56.286],[-3.933,56.304],[-4.01,56.288],[-4.079,56.29],[-4.15,56.298],[-4.212,56.318],[-4.242,56.353],[-4.195,56.459],[-4.099,56.465],[-4.047,56.482],[-3.815,56.464],[-3.773,56.439],[-3.707,56.438],[-3.655,56.444],[-3.617,56.448],[-3.561,56.434],[-3.505,56.432],[-3.458,56.425],[-3.434,56.46],[-3.38,56.443],[-3.333,56.436],[-3.296,56.453],[-3.243,56.486],[-3.202,56.505],[-3.192,56.503],[-3.117,56.474],[-3.089,56.467]]]}},{"type":"Feature","properties":{"name":"Berwickshire, Roxburgh and Selkirk","code":"S14000108"},"geometry":{"type":"Polygon","coordinates":[[[-2.034,55.811],[-2.086,55.762],[-2.144,55.739],[-2.167,55.706],[-2.23,55.662],[-2.258,55.645],[-2.335,55.634],[-2.316,55.62],[-2.292,55.586],[-2.233,55.53],[-2.203,55.49],[-2.188,55.462],[-2.262,55.429],[-2.313,55.41],[-2.345,55.399],[-2.337,55.367],[-2.402,55.354],[-2.481,55.354],[-2.55,55.316],[-2.609,55.283],[-2.611,55.247],[-2.667,55.222],[-2.775,55.149],[-2.828,55.125],[-2.845,55.112],[-2.89,55.141],[-2.897,55.194],[-2.864,55.236],[-2.905,55.257],[-2.917,55.277],[-2.996,55.269],[-3.055,55.281],[-3.082,55.316],[-3.113,55.357],[-3.179,55.36],[-3.235,55.366],[-3.292,55.342],[-3.304,55.369],[-3.244,55.428],[-3.325,55.442],[-3.334,55.503],[-3.306,55.527],[-3.24,55.535],[-3.185,55.572],[-3.123,55.546],[-3.066,55.587],[-3.03,55.568],[-2.973,55.601],[-2.955,55.619],[-2.952,55.64],[-3.001,55.688],[-3.058,55.711],[-3.103,55.737],[-2.982,55.799],[-2.941,55.795],[-2.884,55.807],[-2.819,55.83],[-2.755,55.832],[-2.687,55.839],[-2.648,55.834],[-2.605,55.829],[-2.555,55.839],[-2.549,55.882],[-2.554,55.912],[-2.495,55.906],[-2.435,55.904],[-2.381,55.934],[-2.338,55.933],[-2.282,55.928],[-2.201,55.924],[-2.165,55.915],[-2.145,55.917],[-2.135,55.903],[-2.127,55.889],[-2.101,55.877],[-2.091,55.874],[-2.088,55.874],[-2.075,55.858],[-2.055,55.833],[-2.034,55.811]]]}},{"type":"Feature","properties":{"name":"Alyn and Deeside","code":"W07000082"},"geometry":{"type":"MultiPolygon","coordinates":[[[[-3.101,53.267],[-3.093,53.261],[-3.101,53.267]]],[[[-3.166,53.272],[-3.132,53.258],[-3.122,53.248],[-3.106,53.244],[-3.045,53.22],[-3.041,53.22],[-3.094,53.244],[-3.088,53.248],[-3.086,53.256],[-3.036,53.252],[-2.92,53.183],[-2.981,53.156],[-2.964,53.133],[-3.029,53.104],[-3.059,53.085],[-3.141,53.076],[-3.173,53.111],[-3.113,53.133],[-3.055,53.145],[-3.097,53.172],[-3.086,53.202],[-3.123,53.222],[-3.176,53.24],[-3.199,53.256],[-3.199,53.28],[-3.166,53.272]]]]}},{"type":"Feature","properties":{"name":"Bangor Aberconwy","code":"W07000083"},"geometry":{"type":"Polygon","coordinates":[[[-3.755,53.317],[-3.765,53.279],[-3.727,53.275],[-3.627,53.271],[-3.552,53.268],[-3.526,53.24],[-3.469,53.182],[-3.422,53.162],[-3.39,53.175],[-3.355,53.161],[-3.391,53.128],[-3.36,53.116],[-3.334,53.106],[-3.313,53.091],[-3.31,53.072],[-3.341,53.06],[-3.408,53.034],[-3.455,52.997],[-3.508,52.97],[-3.583,52.968],[-3.615,53.011],[-3.704,52.987],[-3.82,52.95],[-3.884,52.993],[-3.915,53.023],[-3.992,53.014],[-3.984,53.074],[-4.017,53.105],[-4.059,53.136],[-4.089,53.146],[-4.129,53.173],[-4.21,53.202],[-4.165,53.219],[-4.156,53.223],[-4.119,53.234],[-4.106,53.232],[-4.066,53.234],[-4.0,53.249],[-3.933,53.269],[-3.851,53.296],[-3.842,53.292],[-3.838,53.287],[-3.829,53.285],[-3.82,53.277],[-3.81,53.243],[-3.814,53.259],[-3.803,53.274],[-3.816,53.281],[-3.823,53.289],[-3.827,53.291],[-3.84,53.303],[-3.864,53.327],[-3.878,53.34],[-3.833,53.338],[-3.808,53.324],[-3.776,53.328],[-3.755,53.317]]]}},{"type":"Feature","properties":{"name":"Clwyd East","code":"W07000094"},"geometry":{"type":"Polygon","coordinates":[[[-3.31,53.356],[-3.309,53.344],[-3.289,53.327],[-3.263,53.319],[-3.222,53.301],[-3.19,53.286],[-3.211,53.272],[-3.18,53.251],[-3.151,53.22],[-3.102,53.213],[-3.094,53.178],[-3.085,53.153],[-3.08,53.135],[-3.13,53.127],[-3.152,53.093],[-3.148,53.044],[-3.13,52.988],[-3.079,52.962],[-3.198,52.944],[-3.222,52.981],[-3.302,53.008],[-3.354,53.0],[-3.419,53.003],[-3.404,53.036],[-3.335,53.061],[-3.309,53.081],[-3.31,53.096],[-3.338,53.107],[-3.376,53.12],[-3.385,53.128],[-3.362,53.168],[-3.377,53.208],[-3.416,53.244],[-3.432,53.28],[-3.44,53.316],[-3.363,53.352],[-3.31,53.356]]]}},{"type":"Feature","properties":{"name":"Clwyd North","code":"W07000095"},"geometry":{"type":"Polygon","coordinates":[[[-3.362,53.182],[-3.408,53.164],[-3.461,53.164],[-3.51,53.242],[-3.559,53.255],[-3.605,53.27],[-3.684,53.278],[-3.747,53.268],[-3.766,53.311],[-3.737,53.304],[-3.708,53.294],[-3.655,53.292],[-3.609,53.291],[-3.554,53.304],[-3.502,53.305],[-3.486,53.299],[-3.495,53.308],[-3.505,53.31],[-3.447,53.333],[-3.435,53.301],[-3.444,53.269],[-3.385,53.226],[-3.356,53.188],[-3.362,53.182]]]}},{"type":"Feature","properties":{"name":"Wrexham","code":"W07000111"},"geometry":{"type":"Polygon","coordinates":[[[-2.964,53.133],[-2.903,53.112],[-2.887,53.105],[-2.902,53.092],[-2.875,53.073],[-2.861,53.061],[-2.866,53.053],[-2.862,53.044],[-2.844,53.018],[-2.792,52.991],[-2.768,52.995],[-2.727,52.966],[-2.8,52.895],[-2.884,52.947],[-2.929,52.939],[-2.975,52.969],[-2.995,52.992],[-3.015,53.024],[-3.038,53.039],[-3.086,53.041],[-3.148,53.044],[-3.066,53.086],[-3.028,53.093],[-2.973,53.134],[-2.964,53.133]]]}}]}