{"type": "FeatureCollection", "features": [{"type": "Feature", "id": 39, "geometry": {"type": "Polygon", "coordinates": [[[-1.95243801524408, 54.8542279744848], [-1.95340957811644, 54.8499025862942], [-1.96840600443147, 54.8433141251186], [-1.9854834418333, 54.8405723248123], [-2.01420431764881, 54.8287412359309], [-2.02932597879797, 54.8173256743942], [-2.03170041694541, 54.799028639367], [-2.0052294270427, 54.7947974738624], [-1.99286527306017, 54.7762529552677], [-1.97545740856981, 54.770752013536], [-1.95424969534697, 54.7857696698591], [-1.94530126188454, 54.7970818003719], [-1.92615866803058, 54.7940783451406], [-1.91605687690107, 54.7965341119485], [-1.88134165677688, 54.7784243957976], [-1.8587531623536, 54.7710572676123], [-1.84109382136561, 54.7571846277487], [-1.81029663964242, 54.7518436569444], [-1.80662233573443, 54.7466131458774], [-1.77321355478862, 54.751410556199], [-1.7528013293125, 54.7583061653761], [-1.72776238647344, 54.7582037197344], [-1.73294107147653, 54.7456433320387], [-1.74034821165091, 54.7428869192191], [-1.73474356865704, 54.7310522242523], [-1.72687316624238, 54.7290480194448], [-1.73642247500355, 54.7274208607263], [-1.71587040943811, 54.7210338776034], [-1.70598362116871, 54.7136253713049], [-1.71555783186731, 54.7111381038394], [-1.70892659521839, 54.7042917381759], [-1.71040268416163, 54.7007599473668], [-1.7286343691995, 54.7038914424836], [-1.73017604166518, 54.6995875845732], [-1.72044660813982, 54.693578847717], [-1.72547114650084, 54.68580514916], [-1.70391253269912, 54.6743865352697], [-1.68234430738366, 54.6735430682266], [-1.68535023304142, 54.6794829874458], [-1.67618861986963, 54.6920384693829], [-1.69317687062696, 54.6919396321933], [-1.68905466175581, 54.7033475524999], [-1.67830024611221, 54.7040472371153], [-1.65731095401824, 54.6865498718487], [-1.64576788319764, 54.6850366656103], [-1.63592744393295, 54.6768980074719], [-1.62213526858863, 54.6763149460199], [-1.60501429340088, 54.6798811211149], [-1.60325357507929, 54.6778516198842], [-1.60622905721192, 54.6755103508561], [-1.60184877269107, 54.6659414476462], [-1.60905269688891, 54.6595493142014], [-1.61143636339648, 54.6436576562472], [-1.60509385234179, 54.6435257885263], [-1.60497405148055, 54.6411735244813], [-1.60600597720578, 54.6387746763492], [-1.61262133360587, 54.6391419359056], [-1.6185054416542, 54.6191675582644], [-1.63139600491925, 54.618456957195], [-1.63323944560457, 54.6161278330146], [-1.64162851146495, 54.6193656800215], [-1.65703966337823, 54.6154732853849], [-1.68242215879617, 54.6177711325625], [-1.67931169574512, 54.5859733286911], [-1.69402783337592, 54.5868938495826], [-1.70898440615518, 54.5741416864746], [-1.70448030144746, 54.5721617403151], [-1.70928210885412, 54.5631794613267], [-1.70331121845393, 54.5586958181777], [-1.69120671271364, 54.5562446281157], [-1.69756254217517, 54.5557124290846], [-1.70527424961459, 54.5491719558136], [-1.7037713077725, 54.5449364602449], [-1.69834011381076, 54.5442094562889], [-1.69692636355207, 54.5360064288161], [-1.7213108898176, 54.5423017243929], [-1.72730498994653, 54.5304851191883], [-1.73309136190533, 54.5277364123393], [-1.76121346135505, 54.5289515279661], [-1.76972396932688, 54.5328449077499], [-1.77969652861129, 54.5318729939184], [-1.77613231485782, 54.5067285041672], [-1.7821752755751, 54.5070126931078], [-1.78717719757631, 54.5010389912324], [-1.79297648414091, 54.4844924287088], [-1.82244344250921, 54.495177706224], [-1.82778688626019, 54.5029294008921], [-1.83943329269054, 54.5084372355978], [-1.84821673947602, 54.5036629574766], [-1.85780051144888, 54.503539794396], [-1.85912998438283, 54.4818579024252], [-1.86725507782232, 54.4821169159422], [-1.87760324451019, 54.4780495566969], [-1.89343027732002, 54.4668982622119], [-1.94254323627035, 54.4533953541015], [-1.97005959181258, 54.4515215410208], [-1.97612526417875, 54.4597287832746], [-1.98553943940134, 54.4599252873807], [-1.99676437249469, 54.4669034483454], [-2.04472952149334, 54.4751862733078], [-2.04319843418637, 54.4835994475386], [-2.06128930394723, 54.4805575869358], [-2.08639658819696, 54.4683928867806], [-2.11659617374357, 54.4622634779758], [-2.15012069733666, 54.4599634777538], [-2.15926758918667, 54.4554834833023], [-2.17021302340634, 54.4581987846828], [-2.15899719522345, 54.472029635374], [-2.16647021230166, 54.4899079300345], [-2.16239333141251, 54.5039428001019], [-2.16870453079298, 54.5196520986942], [-2.17449248079035, 54.5217270436993], [-2.17239803091537, 54.5324441152957], [-2.18228608321106, 54.5358553612135], [-2.19753056810017, 54.5327039650371], [-2.21014254095128, 54.5436582505962], [-2.20948818801938, 54.5517133723259], [-2.24596214870616, 54.565062685696], [-2.27093649252133, 54.5821991445047], [-2.30451453732035, 54.5961978451873], [-2.3087580280871, 54.6118832747256], [-2.32493776754246, 54.6316502361691], [-2.28797868797798, 54.6504801032182], [-2.29287495116333, 54.6638852911182], [-2.30339697405212, 54.6668241107937], [-2.30331719424786, 54.6696299330074], [-2.32756945568455, 54.6708733962367], [-2.32710665556777, 54.6736667959364], [-2.33561634592756, 54.6753275680513], [-2.35159375318484, 54.6857364060566], [-2.3554731400299, 54.6971977531255], [-2.34438205187696, 54.7017721122644], [-2.34209502710379, 54.7161480286359], [-2.32574674351607, 54.7266292296878], [-2.33230578332374, 54.7319961446206], [-2.32082249854183, 54.7550039074844], [-2.32247866430232, 54.7639707182398], [-2.3084868101346, 54.7735427971225], [-2.31392402962035, 54.7811134309462], [-2.31208952139602, 54.7910150459368], [-2.29298604799158, 54.793165505442], [-2.28267781083991, 54.7982520758217], [-2.24866276990877, 54.7879598588522], [-2.23552068865403, 54.7867972942421], [-2.23406406973811, 54.7841652205937], [-2.21890675191817, 54.7823773828398], [-2.19860065839177, 54.8067362773851], [-2.17741628749138, 54.8068211376792], [-2.16947003967283, 54.8036099733555], [-2.16426480622105, 54.8158278498117], [-2.14313048753368, 54.8269592158224], [-2.13816199851342, 54.8423694891406], [-2.10348865185215, 54.8401684432673], [-2.09745115418501, 54.8367802226876], [-2.08257516389669, 54.8381692430876], [-2.06804471005933, 54.8447769748421], [-2.03965493918131, 54.8482409855982], [-2.01176889533945, 54.8667114491709], [-1.99536223967265, 54.8700387727527], [-1.98023634067633, 54.8681834567993], [-1.97069318131533, 54.8634889406369], [-1.97476636329544, 54.8620637558529], [-1.97246515964282, 54.8602426280666], [-1.95243801524408, 54.8542279744848]]]}, "properties": {"FID": 39, "PCON24CD": "E14001101", "PCON24NM": "Bishop Auckland", "PCON24NMW": " ", "BNG_E": 403295, "BNG_N": 529526, "LONG": -1.95044, "LAT": 54.66081, "GlobalID": "b31d09fb-d1cb-4019-ae6f-cede60a9159f", "results": {"2024": {"winning_party": "Lab", "con_votes": 10364, "lab_votes": 17036, "lib_votes": 1373, "ruk_votes": 9466, "grn_votes": 1857, "oth_votes": 331, "con_pct": 25.6, "lab_pct": 42.1, "lib_pct": 3.4, "ruk_pct": 23.4, "grn_pct": 4.6, "oth_pct": 0.8, "total_votes": 40427, "turnout": 0.571, "mp_name": "Sam Rushworth"}}}}, {"type": "Feature", "id": 44, "geometry": {"type": "MultiPolygon", "coordinates": [[[[-1.68461927965498, 54.9661753398268], [-1.68365178738499, 54.9659085328282], [-1.68395918651185, 54.9659294715139], [-1.68461927965498, 54.9661753398268]]], [[[-1.77877708667278, 54.9825300977362], [-1.77254135757673, 54.9805226810185], [-1.7467428594702, 54.9810539956526], [-1.72849338880392, 54.974985802092], [-1.72687471888799, 54.9696595965456], [-1.71950269075712, 54.9670238763686], [-1.71884191921553, 54.966787592616], [-1.70976346619787, 54.9661979039764], [-1.70287403397915, 54.969598366666], [-1.70147085221844, 54.9702908264313], [-1.70038345493138, 54.96995327085], [-1.68915908403572, 54.9664680489477], [-1.68013247051997, 54.9636640510653], [-1.68650050911471, 54.9590256190793], [-1.68416729771435, 54.9570389486327], [-1.70619698528133, 54.9461868151707], [-1.71204659950591, 54.9363249833958], [-1.71725674244039, 54.9384992857744], [-1.7225078241185, 54.9361678371233], [-1.71919064386717, 54.9308727546722], [-1.72613678901496, 54.9292360661461], [-1.73094205363759, 54.923059792815], [-1.73744228761214, 54.9237425632631], [-1.7376067087798, 54.9186889774254], [-1.72492282931812, 54.9088445500824], [-1.69963928979617, 54.909189988899], [-1.69758765973529, 54.9062432719218], [-1.70960098663963, 54.9072570315187], [-1.70707597206172, 54.9040266602318], [-1.7122442355844, 54.898766871019], [-1.72865768185728, 54.8945433034075], [-1.73363052801588, 54.8877965580925], [-1.74391519961832, 54.8881448927137], [-1.75035180199893, 54.8719738896121], [-1.75961875303443, 54.8740773508365], [-1.76805248418681, 54.866151620672], [-1.77591702078314, 54.8471162271611], [-1.7906453606495, 54.8358265946531], [-1.80085401635766, 54.8412352463872], [-1.80916042536206, 54.8280424786695], [-1.81484199940986, 54.8286419001263], [-1.81656315948252, 54.8338646676172], [-1.82710925383428, 54.8381100903833], [-1.84037027953179, 54.8367918977573], [-1.84746081451439, 54.8391438117054], [-1.8575974747187, 54.8349720808433], [-1.86552849136977, 54.8380588751222], [-1.87191160078097, 54.8352323619035], [-1.88138140121212, 54.8465907311919], [-1.86690061494758, 54.8538799022261], [-1.8697229081079, 54.8614599406305], [-1.86127804135857, 54.866430750434], [-1.86004929900233, 54.8780342306841], [-1.85090901711708, 54.8847334016267], [-1.85443666752614, 54.8911845463918], [-1.84747485420255, 54.8897821666625], [-1.84544907440161, 54.8969031160933], [-1.83468655496164, 54.8990259303547], [-1.82769671162814, 54.9054935524834], [-1.82065709250524, 54.9056653987035], [-1.82663681542811, 54.9100930774017], [-1.85272713603503, 54.917553782929], [-1.84114925719419, 54.9297254834825], [-1.82693347994531, 54.9302864677061], [-1.82447684192906, 54.9393921541998], [-1.83365532552119, 54.9532972394148], [-1.82292295445727, 54.9557465604036], [-1.82443611970802, 54.9624267232469], [-1.81544784130309, 54.9673018943027], [-1.81280740471121, 54.9762855680834], [-1.78607753778428, 54.9843875680115], [-1.78249539796023, 54.9837270151025], [-1.78175765213265, 54.9834895134735], [-1.77877708667278, 54.9825300977362]]]]}, "properties": {"FID": 44, "PCON24CD": "E14001106", "PCON24NM": "Blaydon and Consett", "PCON24NMW": " ", "BNG_E": 414122, "BNG_N": 557646, "LONG": -1.78125, "LAT": 54.91333, "GlobalID": "a05ee5f5-32a7-4bb2-a574-aa7568ac58c4", "results": {"2024": {"winning_party": "Lab", "con_votes": 6052, "lab_votes": 21160, "lib_votes": 2273, "ruk_votes": 10007, "grn_votes": 2589, "oth_votes": 135, "con_pct": 14.3, "lab_pct": 50.1, "lib_pct": 5.4, "ruk_pct": 23.7, "grn_pct": 6.1, "oth_pct": 0.3, "total_votes": 42216, "turnout": 0.599, "mp_name": "Liz Twist"}}}}, {"type": "Feature", "id": 111, "geometry": {"type": "Polygon", "coordinates": [[[-1.43753071909599, 54.8005273194979], [-1.43764920477779, 54.7942238029033], [-1.44826661270741, 54.7888885728392], [-1.46896785147375, 54.7903081288667], [-1.47161065550618, 54.7789147692934], [-1.45228667577388, 54.7715878631344], [-1.45948132274308, 54.7696646116358], [-1.46225241230621, 54.7627590425814], [-1.4543414003651, 54.7527576008962], [-1.4565611993302, 54.74698022262], [-1.49423104336153, 54.7560801512463], [-1.50123550069179, 54.7524166278194], [-1.49979214072239, 54.7491341287977], [-1.50616872468305, 54.747532780112], [-1.50747388481331, 54.7504470236547], [-1.51364787247271, 54.7507046916067], [-1.5145114821741, 54.7443573347576], [-1.53158749387902, 54.7439507924811], [-1.5370287408858, 54.7371553856941], [-1.54217664422266, 54.7432534267372], [-1.54980919272397, 54.7413345980453], [-1.55701111257539, 54.7454418824553], [-1.56167400785013, 54.7422417873191], [-1.56500808014302, 54.7466770738392], [-1.58154199239513, 54.750468828081], [-1.58443163478094, 54.748743802174], [-1.57968301371086, 54.7399472179616], [-1.59528657253276, 54.7302208644633], [-1.61579679307804, 54.7256945410736], [-1.62590749002049, 54.7174287976734], [-1.64413726241058, 54.7128952469245], [-1.64817924839003, 54.7079128910166], [-1.67830024611221, 54.7040472371153], [-1.68905466175581, 54.7033475524999], [-1.69317687062696, 54.6919396321933], [-1.67618861986963, 54.6920384693829], [-1.68535023304142, 54.6794829874458], [-1.68234430738366, 54.6735430682266], [-1.70391253269912, 54.6743865352697], [-1.72547114650084, 54.68580514916], [-1.72044660813982, 54.693578847717], [-1.73017604166518, 54.6995875845732], [-1.7286343691995, 54.7038914424836], [-1.71040268416163, 54.7007599473668], [-1.70892659521839, 54.7042917381759], [-1.71555783186731, 54.7111381038394], [-1.70598362116871, 54.7136253713049], [-1.71587040943811, 54.7210338776034], [-1.73642247500355, 54.7274208607263], [-1.72687316624238, 54.7290480194448], [-1.73474356865704, 54.7310522242523], [-1.74034821165091, 54.7428869192191], [-1.73294107147653, 54.7456433320387], [-1.72776238647344, 54.7582037197344], [-1.7528013293125, 54.7583061653761], [-1.77321355478862, 54.751410556199], [-1.80662233573443, 54.7466131458774], [-1.81029663964242, 54.7518436569444], [-1.84109382136561, 54.7571846277487], [-1.8587531623536, 54.7710572676123], [-1.88134165677688, 54.7784243957976], [-1.86921581839882, 54.7893402452008], [-1.87122325946766, 54.791819069657], [-1.84650379187418, 54.7983862255611], [-1.84759389884638, 54.8009523489063], [-1.84193283582444, 54.8027020253702], [-1.83930614319378, 54.8005345722034], [-1.83073451130496, 54.8041381930423], [-1.82244387054931, 54.8046287242194], [-1.82113267448053, 54.8020952590152], [-1.80585311888702, 54.804237551802], [-1.80237951677965, 54.8003325738662], [-1.79147792293259, 54.8013819873264], [-1.80371544973355, 54.7939120003946], [-1.79610362852129, 54.788711413016], [-1.79401820262464, 54.7905896785387], [-1.78738274463903, 54.7877176764862], [-1.7786336999599, 54.7993390526108], [-1.75865745379429, 54.7921857988275], [-1.74659388762451, 54.7942945367828], [-1.73810949241492, 54.7906189834987], [-1.74092329974916, 54.7963071325723], [-1.73700546318198, 54.7983819992047], [-1.71750398576562, 54.7953964934122], [-1.70705116068489, 54.8000874386118], [-1.70648020233433, 54.8051288794349], [-1.6953961932747, 54.8033061915205], [-1.68966572142182, 54.803959508007], [-1.68996943935406, 54.8074924811286], [-1.65466473540716, 54.8065269470337], [-1.65521444937457, 54.8155993942288], [-1.66424611034648, 54.8253605162329], [-1.64777795425382, 54.825810930832], [-1.63878154712989, 54.8205607220669], [-1.64107978936813, 54.8144640016454], [-1.62251212135451, 54.8113829264284], [-1.6248046948429, 54.8128296810738], [-1.6070819893208, 54.8176398117732], [-1.59596554585134, 54.8161349852809], [-1.58419582464336, 54.8230549655045], [-1.57300439088929, 54.8200953406092], [-1.5703195228142, 54.8244312651805], [-1.56297234777781, 54.8262859238578], [-1.54793941005247, 54.824473402136], [-1.53220059182459, 54.8292134307973], [-1.51425456475954, 54.8284489548314], [-1.51643728612506, 54.834810347019], [-1.50356946035648, 54.8374786847288], [-1.50427968057368, 54.8312298098103], [-1.49750874509547, 54.8226279836685], [-1.49373957553885, 54.8234723746389], [-1.49028995528196, 54.8201815353829], [-1.4943057956704, 54.8160123531518], [-1.48185556201966, 54.8096514136466], [-1.49350840589928, 54.7999978263089], [-1.45460147505553, 54.800021897681], [-1.4440216233418, 54.8024704233296], [-1.43753071909599, 54.8005273194979]]]}, "properties": {"FID": 111, "PCON24CD": "E14001173", "PCON24NM": "City of Durham", "PCON24NMW": " ", "BNG_E": 425010, "BNG_N": 540102, "LONG": -1.61293, "LAT": 54.75525, "GlobalID": "f703223a-a75d-4366-a945-21b122f5d353", "results": {"2024": {"winning_party": "Lab", "con_votes": 5221, "lab_votes": 19131, "lib_votes": 5920, "ruk_votes": 7374, "grn_votes": 2803, "oth_votes": 178, "con_pct": 12.9, "lab_pct": 47.1, "lib_pct": 14.6, "ruk_pct": 18.2, "grn_pct": 6.9, "oth_pct": 0.4, "total_votes": 40627, "turnout": 0.576, "mp_name": "Mary Foy"}}}}, {"type": "Feature", "id": 149, "geometry": {"type": "Polygon", "coordinates": [[[-1.24238146780254, 54.7230620625089], [-1.24340100091707, 54.722692414477], [-1.24592128460714, 54.7234405281221], [-1.24368865966194, 54.7225881164585], [-1.25186499193155, 54.7196229889565], [-1.25856139746239, 54.7260554511218], [-1.2702517668578, 54.7271686868921], [-1.29030145716217, 54.7183978452972], [-1.30367367897698, 54.7185076740542], [-1.30132484271011, 54.7080916518783], [-1.31387919174122, 54.7011971607502], [-1.31268602105083, 54.6959896001737], [-1.31936389932285, 54.6912974487955], [-1.34460276908376, 54.690826265503], [-1.37275466304423, 54.6921668713624], [-1.38070780553024, 54.6842051526242], [-1.38983326553136, 54.6826148299255], [-1.39771116326872, 54.6882901428778], [-1.3971695359487, 54.6959608518652], [-1.40168977929501, 54.6999007177767], [-1.39446398263727, 54.7012047773938], [-1.40128154444518, 54.7114699607028], [-1.39461308847034, 54.718911039577], [-1.40611593842917, 54.7224376397646], [-1.40560677364392, 54.7255050054002], [-1.41453494206865, 54.7297811722405], [-1.42547450309988, 54.7295584617601], [-1.43202813614536, 54.7353829540998], [-1.43211200378578, 54.7326091611871], [-1.43790584999057, 54.7322766851379], [-1.46262447397519, 54.7344079922002], [-1.46544634032946, 54.7374704458428], [-1.45827102856552, 54.7391012250395], [-1.4565611993302, 54.74698022262], [-1.4543414003651, 54.7527576008962], [-1.46225241230621, 54.7627590425814], [-1.45948132274308, 54.7696646116358], [-1.45228667577388, 54.7715878631344], [-1.47161065550618, 54.7789147692934], [-1.46896785147375, 54.7903081288667], [-1.44826661270741, 54.7888885728392], [-1.43764920477779, 54.7942238029033], [-1.43753071909599, 54.8005273194979], [-1.42254301700506, 54.8031753536975], [-1.42163932753175, 54.8131640459789], [-1.41414257179495, 54.8196198106838], [-1.42157982749195, 54.8394710592167], [-1.41202889577009, 54.8418851824119], [-1.41281813130577, 54.8450839251886], [-1.38166346329554, 54.8471597016359], [-1.3689605473239, 54.8576550398063], [-1.34742697394115, 54.8605994850833], [-1.33593835822925, 54.8441614797239], [-1.3354851666986, 54.8437743320829], [-1.3298236838879, 54.8389371537502], [-1.32140203144164, 54.8376640787983], [-1.32089098427849, 54.8375634503815], [-1.32934628775083, 54.8379612984564], [-1.3246087849872, 54.8348598696603], [-1.32155330945532, 54.8367678496258], [-1.3258845585346, 54.8322940295435], [-1.3226714203242, 54.8275689707769], [-1.31940854790805, 54.8217954017828], [-1.32048634453993, 54.8192660717923], [-1.31303467211935, 54.8124462941778], [-1.31262837676667, 54.811779692245], [-1.3113735726958, 54.8031318639227], [-1.3094671302128, 54.7825494571291], [-1.30863394550446, 54.7812507528033], [-1.30867557384164, 54.7809987327897], [-1.30780478396133, 54.7799582432049], [-1.30054995954759, 54.7686458551701], [-1.29502608552642, 54.7646825872983], [-1.2941300750998, 54.7636109752357], [-1.29235785057135, 54.761006367849], [-1.29134602591302, 54.7601394505561], [-1.28168647269031, 54.7528308279003], [-1.24238146780254, 54.7230620625089]]]}, "properties": {"FID": 149, "PCON24CD": "E14001211", "PCON24NM": "Easington", "PCON24NMW": " ", "BNG_E": 441536, "BNG_N": 542519, "LONG": -1.35582, "LAT": 54.77588, "GlobalID": "e81061a1-8ded-4878-8650-3f43067ce9b4", "results": {"2024": {"winning_party": "Lab", "con_votes": 3753, "lab_votes": 16774, "lib_votes": 811, "ruk_votes": 10232, "grn_votes": 1173, "oth_votes": 1581, "con_pct": 10.9, "lab_pct": 48.9, "lib_pct": 2.4, "ruk_pct": 29.8, "grn_pct": 3.4, "oth_pct": 4.6, "total_votes": 34324, "turnout": 0.495, "mp_name": "Grahame Morris"}}}}, {"type": "Feature", "id": 320, "geometry": {"type": "Polygon", "coordinates": [[[-1.4565611993302, 54.74698022262], [-1.45827102856552, 54.7391012250395], [-1.46544634032946, 54.7374704458428], [-1.46262447397519, 54.7344079922002], [-1.43790584999057, 54.7322766851379], [-1.43211200378578, 54.7326091611871], [-1.43202813614536, 54.7353829540998], [-1.42547450309988, 54.7295584617601], [-1.41453494206865, 54.7297811722405], [-1.40560677364392, 54.7255050054002], [-1.40611593842917, 54.7224376397646], [-1.39461308847034, 54.718911039577], [-1.40128154444518, 54.7114699607028], [-1.39446398263727, 54.7012047773938], [-1.40168977929501, 54.6999007177767], [-1.3971695359487, 54.6959608518652], [-1.39771116326872, 54.6882901428778], [-1.38983326553136, 54.6826148299255], [-1.38070780553024, 54.6842051526242], [-1.37275466304423, 54.6921668713624], [-1.34460276908376, 54.690826265503], [-1.33449018998271, 54.6890177013234], [-1.33094416840882, 54.6821617184272], [-1.33306463906303, 54.6726135520118], [-1.34354391967703, 54.6686115404067], [-1.34787134473742, 54.6624292314929], [-1.34122267082448, 54.6502432606996], [-1.38376395297565, 54.6462430013827], [-1.38084708286666, 54.6438022238506], [-1.39044825228655, 54.6391350522173], [-1.38827125280429, 54.6316031240965], [-1.39550976562977, 54.6310975399563], [-1.39423518707524, 54.6288822524917], [-1.40159877406217, 54.6263593079762], [-1.39915808958827, 54.624129326371], [-1.40477977900409, 54.6240456380954], [-1.40978502114536, 54.6184937063436], [-1.42614438988247, 54.6115231151246], [-1.42996989703098, 54.615322786888], [-1.44219322725007, 54.6102505059691], [-1.45089749591544, 54.6105583859287], [-1.45078576373183, 54.6046985262307], [-1.43835548898022, 54.5950796110357], [-1.44340117937859, 54.5906238611258], [-1.45178466885442, 54.590851213831], [-1.45612279802525, 54.5992909399044], [-1.46019687184838, 54.5968256281525], [-1.46782577400147, 54.6004790556541], [-1.51402995067574, 54.5953554691059], [-1.52640318080818, 54.5964860447416], [-1.55864448318351, 54.5921168474943], [-1.56226193084395, 54.5859713472101], [-1.55282400409124, 54.5823421860065], [-1.58331530532364, 54.5809085878837], [-1.58286471991038, 54.5894750443351], [-1.59086084906521, 54.5902140128492], [-1.59340930184247, 54.5950771631711], [-1.58987560498012, 54.5977487410361], [-1.59294859022387, 54.6045494002019], [-1.58407232425286, 54.6072683980439], [-1.58419280946254, 54.6104860456919], [-1.60621813900068, 54.6034402415366], [-1.60676411917432, 54.6175403651472], [-1.6185054416542, 54.6191675582644], [-1.61262133360587, 54.6391419359056], [-1.60600597720578, 54.6387746763492], [-1.60497405148055, 54.6411735244813], [-1.60509385234179, 54.6435257885263], [-1.61143636339648, 54.6436576562472], [-1.60905269688891, 54.6595493142014], [-1.60184877269107, 54.6659414476462], [-1.60622905721192, 54.6755103508561], [-1.60325357507929, 54.6778516198842], [-1.60501429340088, 54.6798811211149], [-1.62213526858863, 54.6763149460199], [-1.63592744393295, 54.6768980074719], [-1.64576788319764, 54.6850366656103], [-1.65731095401824, 54.6865498718487], [-1.67830024611221, 54.7040472371153], [-1.64817924839003, 54.7079128910166], [-1.64413726241058, 54.7128952469245], [-1.62590749002049, 54.7174287976734], [-1.61579679307804, 54.7256945410736], [-1.59528657253276, 54.7302208644633], [-1.57968301371086, 54.7399472179616], [-1.58443163478094, 54.748743802174], [-1.58154199239513, 54.750468828081], [-1.56500808014302, 54.7466770738392], [-1.56167400785013, 54.7422417873191], [-1.55701111257539, 54.7454418824553], [-1.54980919272397, 54.7413345980453], [-1.54217664422266, 54.7432534267372], [-1.5370287408858, 54.7371553856941], [-1.53158749387902, 54.7439507924811], [-1.5145114821741, 54.7443573347576], [-1.51364787247271, 54.7507046916067], [-1.50747388481331, 54.7504470236547], [-1.50616872468305, 54.747532780112], [-1.49979214072239, 54.7491341287977], [-1.50123550069179, 54.7524166278194], [-1.49423104336153, 54.7560801512463], [-1.4565611993302, 54.74698022262]]]}, "properties": {"FID": 320, "PCON24CD": "E14001382", "PCON24NM": "Newton Aycliffe and Spennymoor", "PCON24NMW": " ", "BNG_E": 432034, "BNG_N": 530890, "LONG": -1.5048, "LAT": 54.67207, "GlobalID": "681558ea-3fd6-4118-b352-1a72e59ebdeb", "results": {"2024": {"winning_party": "Lab", "con_votes": 8195, "lab_votes": 18394, "lib_votes": 1491, "ruk_votes": 9555, "grn_votes": 1701, "oth_votes": 510, "con_pct": 20.6, "lab_pct": 46.2, "lib_pct": 3.7, "ruk_pct": 24.0, "grn_pct": 4.3, "oth_pct": 1.3, "total_votes": 39846, "turnout": 0.552, "mp_name": "Alan Strickland"}}}}, {"type": "Feature", "id": 327, "geometry": {"type": "Polygon", "coordinates": [[[-1.50653070203232, 54.8710801008353], [-1.5103049172871, 54.8602677109541], [-1.50356946035648, 54.8374786847288], [-1.51643728612506, 54.834810347019], [-1.51425456475954, 54.8284489548314], [-1.53220059182459, 54.8292134307973], [-1.54793941005247, 54.824473402136], [-1.56297234777781, 54.8262859238578], [-1.5703195228142, 54.8244312651805], [-1.57300439088929, 54.8200953406092], [-1.58419582464336, 54.8230549655045], [-1.59596554585134, 54.8161349852809], [-1.6070819893208, 54.8176398117732], [-1.6248046948429, 54.8128296810738], [-1.62251212135451, 54.8113829264284], [-1.64107978936813, 54.8144640016454], [-1.63878154712989, 54.8205607220669], [-1.64777795425382, 54.825810930832], [-1.66424611034648, 54.8253605162329], [-1.65521444937457, 54.8155993942288], [-1.65466473540716, 54.8065269470337], [-1.68996943935406, 54.8074924811286], [-1.68966572142182, 54.803959508007], [-1.6953961932747, 54.8033061915205], [-1.70648020233433, 54.8051288794349], [-1.70705116068489, 54.8000874386118], [-1.71750398576562, 54.7953964934122], [-1.73700546318198, 54.7983819992047], [-1.74092329974916, 54.7963071325723], [-1.73810949241492, 54.7906189834987], [-1.74659388762451, 54.7942945367828], [-1.75865745379429, 54.7921857988275], [-1.7786336999599, 54.7993390526108], [-1.78738274463903, 54.7877176764862], [-1.79401820262464, 54.7905896785387], [-1.79610362852129, 54.788711413016], [-1.80371544973355, 54.7939120003946], [-1.79147792293259, 54.8013819873264], [-1.80237951677965, 54.8003325738662], [-1.80585311888702, 54.804237551802], [-1.82113267448053, 54.8020952590152], [-1.82244387054931, 54.8046287242194], [-1.83073451130496, 54.8041381930423], [-1.83930614319378, 54.8005345722034], [-1.84193283582444, 54.8027020253702], [-1.84759389884638, 54.8009523489063], [-1.84650379187418, 54.7983862255611], [-1.87122325946766, 54.791819069657], [-1.86921581839882, 54.7893402452008], [-1.88134165677688, 54.7784243957976], [-1.91605687690107, 54.7965341119485], [-1.92615866803058, 54.7940783451406], [-1.94530126188454, 54.7970818003719], [-1.95424969534697, 54.7857696698591], [-1.97545740856981, 54.770752013536], [-1.99286527306017, 54.7762529552677], [-2.0052294270427, 54.7947974738624], [-2.03170041694541, 54.799028639367], [-2.02932597879797, 54.8173256743942], [-2.01420431764881, 54.8287412359309], [-1.9854834418333, 54.8405723248123], [-1.96840600443147, 54.8433141251186], [-1.95340957811644, 54.8499025862942], [-1.95243801524408, 54.8542279744848], [-1.93913651941704, 54.8517728466127], [-1.93273428183661, 54.8541927135025], [-1.93180662254452, 54.8508308410726], [-1.92263249797511, 54.8498700836279], [-1.92098661260565, 54.8424519754545], [-1.92713424142272, 54.8411655450627], [-1.91811262088859, 54.8407513260475], [-1.92086882110867, 54.8379995714201], [-1.91543304452764, 54.8339630652891], [-1.91100134689685, 54.8366536397249], [-1.91407298666824, 54.8395033253951], [-1.89747349392318, 54.8457279373986], [-1.8875719655662, 54.8436032512374], [-1.88138140121212, 54.8465907311919], [-1.87191160078097, 54.8352323619035], [-1.86552849136977, 54.8380588751222], [-1.8575974747187, 54.8349720808433], [-1.84746081451439, 54.8391438117054], [-1.84037027953179, 54.8367918977573], [-1.82710925383428, 54.8381100903833], [-1.81656315948252, 54.8338646676172], [-1.81484199940986, 54.8286419001263], [-1.80916042536206, 54.8280424786695], [-1.80085401635766, 54.8412352463872], [-1.7906453606495, 54.8358265946531], [-1.77591702078314, 54.8471162271611], [-1.76805248418681, 54.866151620672], [-1.75961875303443, 54.8740773508365], [-1.75035180199893, 54.8719738896121], [-1.74391519961832, 54.8881448927137], [-1.73363052801588, 54.8877965580925], [-1.72865768185728, 54.8945433034075], [-1.7122442355844, 54.898766871019], [-1.70707597206172, 54.9040266602318], [-1.70960098663963, 54.9072570315187], [-1.69758765973529, 54.9062432719218], [-1.69057275188007, 54.9026657372878], [-1.68765496565448, 54.9079170228558], [-1.67483760279461, 54.9093023847221], [-1.67557639645876, 54.8980968537887], [-1.66303591772849, 54.8959393843326], [-1.65995094724449, 54.8906648253327], [-1.64931878603612, 54.8929873115765], [-1.64634587211327, 54.8813953266087], [-1.65055954794471, 54.8793235532567], [-1.64332269409298, 54.8788649549847], [-1.62741064299423, 54.8864472941231], [-1.61874349646244, 54.8870586502247], [-1.6073509499058, 54.8983218219381], [-1.59420813861949, 54.9019999216527], [-1.58395455715722, 54.8928773937756], [-1.57990946563576, 54.8777701479023], [-1.55942618088802, 54.8820027328376], [-1.56191438267007, 54.87569283264], [-1.54156842930237, 54.8734593658604], [-1.531781773186, 54.8781883863561], [-1.50653070203232, 54.8710801008353]]]}, "properties": {"FID": 327, "PCON24CD": "E14001389", "PCON24NM": "North Durham", "PCON24NMW": " ", "BNG_E": 422927, "BNG_N": 549506, "LONG": -1.64455, "LAT": 54.83986, "GlobalID": "e8b51296-a29d-4ac7-aadc-ab63c43c7c08", "results": {"2024": {"winning_party": "Lab", "con_votes": 6492, "lab_votes": 16562, "lib_votes": 4208, "ruk_votes": 10689, "grn_votes": 2366, "oth_votes": 1248, "con_pct": 15.6, "lab_pct": 39.8, "lib_pct": 10.1, "ruk_pct": 25.7, "grn_pct": 5.7, "oth_pct": 3.0, "total_votes": 41565, "turnout": 0.568, "mp_name": "Luke Akehurst"}}}}]}